<?xml version="1.0" encoding="UTF-8"?>
<gpx version="1.1" creator="overpass-osm-import">
  <trk>
    <name>올레길1</name>
    <trkseg>
      <trkpt lat="33.4772407" lon="126.895977"></trkpt>
      <trkpt lat="33.4771936" lon="126.8958567"></trkpt>
      <trkpt lat="33.4771517" lon="126.8957581"></trkpt>
      <trkpt lat="33.4770944" lon="126.8956396"></trkpt>
      <trkpt lat="33.4770821" lon="126.8955464"></trkpt>
      <trkpt lat="33.4771202" lon="126.895426"></trkpt>
      <trkpt lat="33.47719" lon="126.8953398"></trkpt>
      <trkpt lat="33.4772532" lon="126.8952834"></trkpt>
      <trkpt lat="33.4772878" lon="126.8952363"></trkpt>
      <trkpt lat="33.4773329" lon="126.8951865"></trkpt>
      <trkpt lat="33.4773536" lon="126.8951158"></trkpt>
      <trkpt lat="33.477373" lon="126.8950664"></trkpt>
      <trkpt lat="33.4773718" lon="126.8950058"></trkpt>
      <trkpt lat="33.4773628" lon="126.8949654"></trkpt>
      <trkpt lat="33.4772918" lon="126.8947614"></trkpt>
      <trkpt lat="33.4772599" lon="126.8946466"></trkpt>
      <trkpt lat="33.4772376" lon="126.8945696"></trkpt>
      <trkpt lat="33.4772212" lon="126.8945289"></trkpt>
      <trkpt lat="33.4771729" lon="126.894471"></trkpt>
      <trkpt lat="33.4771256" lon="126.894431"></trkpt>
      <trkpt lat="33.4770849" lon="126.8943785"></trkpt>
      <trkpt lat="33.4770272" lon="126.8942911"></trkpt>
      <trkpt lat="33.4769447" lon="126.8941299"></trkpt>
      <trkpt lat="33.4768982" lon="126.8939674"></trkpt>
      <trkpt lat="33.4768092" lon="126.8937097"></trkpt>
      <trkpt lat="33.4767006" lon="126.893444"></trkpt>
      <trkpt lat="33.4766212" lon="126.8932616"></trkpt>
      <trkpt lat="33.4765344" lon="126.8929667"></trkpt>
      <trkpt lat="33.4764347" lon="126.8926823"></trkpt>
      <trkpt lat="33.4764081" lon="126.8925551"></trkpt>
      <trkpt lat="33.4763058" lon="126.8922272"></trkpt>
      <trkpt lat="33.4762182" lon="126.8919773"></trkpt>
      <trkpt lat="33.4761523" lon="126.8918198"></trkpt>
      <trkpt lat="33.4760996" lon="126.8917099"></trkpt>
      <trkpt lat="33.4760359" lon="126.8916221"></trkpt>
      <trkpt lat="33.4759693" lon="126.8915382"></trkpt>
      <trkpt lat="33.4758976" lon="126.8913886"></trkpt>
      <trkpt lat="33.4758668" lon="126.891309"></trkpt>
      <trkpt lat="33.475827" lon="126.8912169"></trkpt>
      <trkpt lat="33.4757813" lon="126.8910379"></trkpt>
      <trkpt lat="33.4757298" lon="126.8907943"></trkpt>
      <trkpt lat="33.4757023" lon="126.8906999"></trkpt>
      <trkpt lat="33.4756483" lon="126.8905832"></trkpt>
      <trkpt lat="33.4756066" lon="126.8905153"></trkpt>
      <trkpt lat="33.4755692" lon="126.8904297"></trkpt>
      <trkpt lat="33.4755231" lon="126.890327"></trkpt>
      <trkpt lat="33.4754989" lon="126.8902367"></trkpt>
      <trkpt lat="33.4754725" lon="126.8901096"></trkpt>
      <trkpt lat="33.4754006" lon="126.889761"></trkpt>
      <trkpt lat="33.4753643" lon="126.8896433"></trkpt>
      <trkpt lat="33.4753533" lon="126.889617"></trkpt>
      <trkpt lat="33.4753455" lon="126.8895846"></trkpt>
      <trkpt lat="33.4753372" lon="126.8895407"></trkpt>
      <trkpt lat="33.4752949" lon="126.8894999"></trkpt>
      <trkpt lat="33.4752493" lon="126.8894683"></trkpt>
      <trkpt lat="33.4752007" lon="126.8894222"></trkpt>
      <trkpt lat="33.4751466" lon="126.8893448"></trkpt>
      <trkpt lat="33.4751395" lon="126.8893115"></trkpt>
      <trkpt lat="33.4751362" lon="126.8892502"></trkpt>
      <trkpt lat="33.475139" lon="126.8890262"></trkpt>
      <trkpt lat="33.4751154" lon="126.8888411"></trkpt>
      <trkpt lat="33.4750665" lon="126.8885776"></trkpt>
      <trkpt lat="33.4750654" lon="126.8883906"></trkpt>
      <trkpt lat="33.4750374" lon="126.8881706"></trkpt>
      <trkpt lat="33.474972" lon="126.8878248"></trkpt>
      <trkpt lat="33.474944" lon="126.8877102"></trkpt>
      <trkpt lat="33.4749105" lon="126.8875521"></trkpt>
      <trkpt lat="33.4748561" lon="126.8874435"></trkpt>
      <trkpt lat="33.4748204" lon="126.8873302"></trkpt>
      <trkpt lat="33.4747578" lon="126.8870957"></trkpt>
      <trkpt lat="33.4746666" lon="126.8868336"></trkpt>
      <trkpt lat="33.4746578" lon="126.8867696"></trkpt>
      <trkpt lat="33.4746254" lon="126.8866368"></trkpt>
      <trkpt lat="33.474617" lon="126.8864763"></trkpt>
      <trkpt lat="33.4745958" lon="126.8862787"></trkpt>
      <trkpt lat="33.4745687" lon="126.8861817"></trkpt>
      <trkpt lat="33.4745413" lon="126.8860691"></trkpt>
      <trkpt lat="33.4745098" lon="126.885985"></trkpt>
      <trkpt lat="33.4745157" lon="126.885891"></trkpt>
      <trkpt lat="33.474362" lon="126.8857448"></trkpt>
      <trkpt lat="33.474274" lon="126.885531"></trkpt>
      <trkpt lat="33.4741711" lon="126.8853213"></trkpt>
      <trkpt lat="33.4740903" lon="126.8851603"></trkpt>
      <trkpt lat="33.4740361" lon="126.8851009"></trkpt>
      <trkpt lat="33.4743106" lon="126.8846254"></trkpt>
      <trkpt lat="33.4743805" lon="126.884508"></trkpt>
      <trkpt lat="33.474435" lon="126.8843658"></trkpt>
      <trkpt lat="33.4744604" lon="126.8843335"></trkpt>
      <trkpt lat="33.4744988" lon="126.8843165"></trkpt>
      <trkpt lat="33.4746523" lon="126.8842766"></trkpt>
      <trkpt lat="33.4748087" lon="126.8842934"></trkpt>
      <trkpt lat="33.4750241" lon="126.8842983"></trkpt>
      <trkpt lat="33.4751266" lon="126.8842967"></trkpt>
      <trkpt lat="33.4753269" lon="126.8842672"></trkpt>
      <trkpt lat="33.4754276" lon="126.8842511"></trkpt>
      <trkpt lat="33.4754918" lon="126.8842814"></trkpt>
      <trkpt lat="33.4755424" lon="126.8843003"></trkpt>
      <trkpt lat="33.4755629" lon="126.8843068"></trkpt>
      <trkpt lat="33.4756093" lon="126.8842752"></trkpt>
      <trkpt lat="33.475622" lon="126.8842331"></trkpt>
      <trkpt lat="33.4756395" lon="126.8841867"></trkpt>
      <trkpt lat="33.4756703" lon="126.8841233"></trkpt>
      <trkpt lat="33.4756972" lon="126.8840821"></trkpt>
      <trkpt lat="33.4757089" lon="126.8840788"></trkpt>
      <trkpt lat="33.4757492" lon="126.8841311"></trkpt>
      <trkpt lat="33.4757789" lon="126.8841959"></trkpt>
      <trkpt lat="33.475809" lon="126.8842484"></trkpt>
      <trkpt lat="33.4758476" lon="126.8843155"></trkpt>
      <trkpt lat="33.4758644" lon="126.8843148"></trkpt>
      <trkpt lat="33.475889" lon="126.8842819"></trkpt>
      <trkpt lat="33.4759131" lon="126.8842457"></trkpt>
      <trkpt lat="33.4759657" lon="126.8841541"></trkpt>
      <trkpt lat="33.476002" lon="126.8841076"></trkpt>
      <trkpt lat="33.4760238" lon="126.8840991"></trkpt>
      <trkpt lat="33.4760993" lon="126.8843228"></trkpt>
      <trkpt lat="33.4761418" lon="126.8844033"></trkpt>
      <trkpt lat="33.4761544" lon="126.8844903"></trkpt>
      <trkpt lat="33.4761691" lon="126.8845893"></trkpt>
      <trkpt lat="33.4761819" lon="126.8847113"></trkpt>
      <trkpt lat="33.4762241" lon="126.8849103"></trkpt>
      <trkpt lat="33.4762562" lon="126.8850989"></trkpt>
      <trkpt lat="33.4763017" lon="126.8853345"></trkpt>
      <trkpt lat="33.4763358" lon="126.8854103"></trkpt>
      <trkpt lat="33.4763866" lon="126.8855205"></trkpt>
      <trkpt lat="33.4764151" lon="126.8856268"></trkpt>
      <trkpt lat="33.4764431" lon="126.885776"></trkpt>
      <trkpt lat="33.4764751" lon="126.8859087"></trkpt>
      <trkpt lat="33.4765333" lon="126.8861043"></trkpt>
      <trkpt lat="33.4766771" lon="126.8864626"></trkpt>
      <trkpt lat="33.4768404" lon="126.8867442"></trkpt>
      <trkpt lat="33.4769472" lon="126.8870162"></trkpt>
      <trkpt lat="33.4770239" lon="126.8872753"></trkpt>
      <trkpt lat="33.4771022" lon="126.8874389"></trkpt>
      <trkpt lat="33.4771918" lon="126.8875787"></trkpt>
      <trkpt lat="33.4775071" lon="126.8878466"></trkpt>
      <trkpt lat="33.4775709" lon="126.8878935"></trkpt>
      <trkpt lat="33.4777031" lon="126.8879357"></trkpt>
      <trkpt lat="33.4778505" lon="126.8880893"></trkpt>
      <trkpt lat="33.4779352" lon="126.8881448"></trkpt>
      <trkpt lat="33.4780336" lon="126.8881728"></trkpt>
      <trkpt lat="33.4781372" lon="126.8882113"></trkpt>
      <trkpt lat="33.4782282" lon="126.8882598"></trkpt>
      <trkpt lat="33.4783319" lon="126.8883311"></trkpt>
      <trkpt lat="33.4783978" lon="126.8883851"></trkpt>
      <trkpt lat="33.4785122" lon="126.8884134"></trkpt>
      <trkpt lat="33.4786455" lon="126.8884207"></trkpt>
      <trkpt lat="33.4787591" lon="126.8884132"></trkpt>
      <trkpt lat="33.4788271" lon="126.8884112"></trkpt>
      <trkpt lat="33.4789132" lon="126.888375"></trkpt>
      <trkpt lat="33.4789557" lon="126.8882932"></trkpt>
      <trkpt lat="33.4789593" lon="126.8882522"></trkpt>
      <trkpt lat="33.4789264" lon="126.888194"></trkpt>
      <trkpt lat="33.4788838" lon="126.8881268"></trkpt>
      <trkpt lat="33.4787811" lon="126.8880791"></trkpt>
      <trkpt lat="33.4787497" lon="126.8880461"></trkpt>
      <trkpt lat="33.478719" lon="126.887998"></trkpt>
      <trkpt lat="33.4786279" lon="126.8879056"></trkpt>
      <trkpt lat="33.4785329" lon="126.8878305"></trkpt>
      <trkpt lat="33.4783706" lon="126.8876797"></trkpt>
      <trkpt lat="33.4781481" lon="126.8874952"></trkpt>
      <trkpt lat="33.4780418" lon="126.8874389"></trkpt>
      <trkpt lat="33.4779539" lon="126.8873528"></trkpt>
      <trkpt lat="33.4778964" lon="126.8873101"></trkpt>
      <trkpt lat="33.4778483" lon="126.8872645"></trkpt>
      <trkpt lat="33.4778214" lon="126.8872042"></trkpt>
      <trkpt lat="33.4777979" lon="126.8871264"></trkpt>
      <trkpt lat="33.4778326" lon="126.8870969"></trkpt>
      <trkpt lat="33.4778908" lon="126.8870647"></trkpt>
      <trkpt lat="33.4779531" lon="126.8870357"></trkpt>
      <trkpt lat="33.4780891" lon="126.8869852"></trkpt>
      <trkpt lat="33.4781557" lon="126.886948"></trkpt>
      <trkpt lat="33.4782966" lon="126.8869195"></trkpt>
      <trkpt lat="33.4784389" lon="126.886818"></trkpt>
      <trkpt lat="33.478457" lon="126.8867939"></trkpt>
      <trkpt lat="33.4785518" lon="126.8867035"></trkpt>
      <trkpt lat="33.478565" lon="126.8866733"></trkpt>
      <trkpt lat="33.4785743" lon="126.8866031"></trkpt>
      <trkpt lat="33.4786418" lon="126.8865046"></trkpt>
      <trkpt lat="33.4786571" lon="126.8863875"></trkpt>
      <trkpt lat="33.478685" lon="126.8863325"></trkpt>
      <trkpt lat="33.4787186" lon="126.8863124"></trkpt>
      <trkpt lat="33.4787611" lon="126.886197"></trkpt>
      <trkpt lat="33.4787767" lon="126.8860737"></trkpt>
      <trkpt lat="33.4787689" lon="126.8859972"></trkpt>
      <trkpt lat="33.4788192" lon="126.8858765"></trkpt>
      <trkpt lat="33.4788584" lon="126.8857558"></trkpt>
      <trkpt lat="33.4789177" lon="126.8856552"></trkpt>
      <trkpt lat="33.4789691" lon="126.8855855"></trkpt>
      <trkpt lat="33.479024" lon="126.8855063"></trkpt>
      <trkpt lat="33.4791089" lon="126.8854581"></trkpt>
      <trkpt lat="33.479204" lon="126.8853749"></trkpt>
      <trkpt lat="33.479223" lon="126.8852904"></trkpt>
      <trkpt lat="33.4792342" lon="126.8851697"></trkpt>
      <trkpt lat="33.4792275" lon="126.8850638"></trkpt>
      <trkpt lat="33.4792354" lon="126.8849578"></trkpt>
      <trkpt lat="33.4793349" lon="126.8848238"></trkpt>
      <trkpt lat="33.4794065" lon="126.8847366"></trkpt>
      <trkpt lat="33.4794691" lon="126.8847178"></trkpt>
      <trkpt lat="33.4795731" lon="126.8846413"></trkpt>
      <trkpt lat="33.4796783" lon="126.8844656"></trkpt>
      <trkpt lat="33.4797275" lon="126.8843839"></trkpt>
      <trkpt lat="33.4797712" lon="126.884353"></trkpt>
      <trkpt lat="33.4798125" lon="126.8843155"></trkpt>
      <trkpt lat="33.4798539" lon="126.8842739"></trkpt>
      <trkpt lat="33.479902" lon="126.8842176"></trkpt>
      <trkpt lat="33.4799524" lon="126.8841223"></trkpt>
      <trkpt lat="33.4799736" lon="126.8840808"></trkpt>
      <trkpt lat="33.479996" lon="126.8840083"></trkpt>
      <trkpt lat="33.4800866" lon="126.883885"></trkpt>
      <trkpt lat="33.4801503" lon="126.8838247"></trkpt>
      <trkpt lat="33.480213" lon="126.8837763"></trkpt>
      <trkpt lat="33.4802857" lon="126.8837455"></trkpt>
      <trkpt lat="33.4803215" lon="126.88372"></trkpt>
      <trkpt lat="33.4804099" lon="126.8836918"></trkpt>
      <trkpt lat="33.4804703" lon="126.8836717"></trkpt>
      <trkpt lat="33.4805753" lon="126.8835957"></trkpt>
      <trkpt lat="33.4806492" lon="126.8837493"></trkpt>
      <trkpt lat="33.4807055" lon="126.8838549"></trkpt>
      <trkpt lat="33.4807611" lon="126.8839645"></trkpt>
      <trkpt lat="33.4808353" lon="126.8841244"></trkpt>
      <trkpt lat="33.4808017" lon="126.8842411"></trkpt>
      <trkpt lat="33.4807341" lon="126.8843969"></trkpt>
      <trkpt lat="33.4806695" lon="126.8845663"></trkpt>
      <trkpt lat="33.4806507" lon="126.884728"></trkpt>
      <trkpt lat="33.4806263" lon="126.8849724"></trkpt>
      <trkpt lat="33.4806205" lon="126.8850802"></trkpt>
      <trkpt lat="33.4805862" lon="126.8851944"></trkpt>
      <trkpt lat="33.4805144" lon="126.8853284"></trkpt>
      <trkpt lat="33.4804697" lon="126.8854169"></trkpt>
      <trkpt lat="33.4805177" lon="126.8854952"></trkpt>
      <trkpt lat="33.480645" lon="126.885591"></trkpt>
      <trkpt lat="33.4807392" lon="126.8856592"></trkpt>
      <trkpt lat="33.48082" lon="126.885678"></trkpt>
      <trkpt lat="33.480893" lon="126.8856918"></trkpt>
      <trkpt lat="33.4809837" lon="126.8857133"></trkpt>
      <trkpt lat="33.4810679" lon="126.8857033"></trkpt>
      <trkpt lat="33.4811705" lon="126.8856798"></trkpt>
      <trkpt lat="33.4812635" lon="126.8855424"></trkpt>
      <trkpt lat="33.4813713" lon="126.8853253"></trkpt>
      <trkpt lat="33.4814863" lon="126.8850959"></trkpt>
      <trkpt lat="33.4816023" lon="126.8849767"></trkpt>
      <trkpt lat="33.4816828" lon="126.8849129"></trkpt>
      <trkpt lat="33.4817612" lon="126.8848543"></trkpt>
      <trkpt lat="33.4818864" lon="126.8847265"></trkpt>
      <trkpt lat="33.4819872" lon="126.8846519"></trkpt>
      <trkpt lat="33.4820981" lon="126.8845906"></trkpt>
      <trkpt lat="33.4821527" lon="126.884561"></trkpt>
      <trkpt lat="33.4822544" lon="126.8844904"></trkpt>
      <trkpt lat="33.4823503" lon="126.8844131"></trkpt>
      <trkpt lat="33.4824268" lon="126.8843529"></trkpt>
      <trkpt lat="33.4824976" lon="126.8842899"></trkpt>
      <trkpt lat="33.4825955" lon="126.8841979"></trkpt>
      <trkpt lat="33.4826453" lon="126.8841647"></trkpt>
      <trkpt lat="33.4827287" lon="126.884123"></trkpt>
      <trkpt lat="33.4828327" lon="126.8840937"></trkpt>
      <trkpt lat="33.4828854" lon="126.8840892"></trkpt>
      <trkpt lat="33.4829208" lon="126.8840742"></trkpt>
      <trkpt lat="33.4829251" lon="126.8839724"></trkpt>
      <trkpt lat="33.4829335" lon="126.8838318"></trkpt>
      <trkpt lat="33.4829103" lon="126.8836451"></trkpt>
      <trkpt lat="33.4829087" lon="126.8835793"></trkpt>
      <trkpt lat="33.4829135" lon="126.8834997"></trkpt>
      <trkpt lat="33.482944" lon="126.8834393"></trkpt>
      <trkpt lat="33.4830194" lon="126.8833427"></trkpt>
      <trkpt lat="33.4830989" lon="126.8832917"></trkpt>
      <trkpt lat="33.4831658" lon="126.8832413"></trkpt>
      <trkpt lat="33.4832213" lon="126.8831855"></trkpt>
      <trkpt lat="33.483319" lon="126.8830864"></trkpt>
      <trkpt lat="33.4834024" lon="126.8830134"></trkpt>
      <trkpt lat="33.4834604" lon="126.8829202"></trkpt>
      <trkpt lat="33.4834808" lon="126.8828722"></trkpt>
      <trkpt lat="33.4834971" lon="126.8826967"></trkpt>
      <trkpt lat="33.4834971" lon="126.882576"></trkpt>
      <trkpt lat="33.483496" lon="126.8825103"></trkpt>
      <trkpt lat="33.4835347" lon="126.8824118"></trkpt>
      <trkpt lat="33.4836774" lon="126.8823475"></trkpt>
      <trkpt lat="33.4838047" lon="126.8823082"></trkpt>
      <trkpt lat="33.4838649" lon="126.8822717"></trkpt>
      <trkpt lat="33.4839454" lon="126.8822122"></trkpt>
      <trkpt lat="33.4839829" lon="126.8821404"></trkpt>
      <trkpt lat="33.4840043" lon="126.8820834"></trkpt>
      <trkpt lat="33.4839963" lon="126.881971"></trkpt>
      <trkpt lat="33.4839846" lon="126.8818577"></trkpt>
      <trkpt lat="33.4838863" lon="126.881595"></trkpt>
      <trkpt lat="33.4837786" lon="126.8813558"></trkpt>
      <trkpt lat="33.4837346" lon="126.8811245"></trkpt>
      <trkpt lat="33.4835887" lon="126.8806864"></trkpt>
      <trkpt lat="33.4835183" lon="126.8804491"></trkpt>
      <trkpt lat="33.4834826" lon="126.8802806"></trkpt>
      <trkpt lat="33.4834778" lon="126.8800363"></trkpt>
      <trkpt lat="33.4834475" lon="126.8798497"></trkpt>
      <trkpt lat="33.483382" lon="126.8796847"></trkpt>
      <trkpt lat="33.4833231" lon="126.8795498"></trkpt>
      <trkpt lat="33.4833265" lon="126.8794177"></trkpt>
      <trkpt lat="33.4834548" lon="126.8793747"></trkpt>
      <trkpt lat="33.4835548" lon="126.8793388"></trkpt>
      <trkpt lat="33.4836117" lon="126.879325"></trkpt>
      <trkpt lat="33.4836666" lon="126.8793307"></trkpt>
      <trkpt lat="33.4837012" lon="126.8793469"></trkpt>
      <trkpt lat="33.4837418" lon="126.8793526"></trkpt>
      <trkpt lat="33.4837899" lon="126.8793965"></trkpt>
      <trkpt lat="33.4838339" lon="126.8794729"></trkpt>
      <trkpt lat="33.4838597" lon="126.879546"></trkpt>
      <trkpt lat="33.4838902" lon="126.879676"></trkpt>
      <trkpt lat="33.4839031" lon="126.8798052"></trkpt>
      <trkpt lat="33.4839275" lon="126.8798905"></trkpt>
      <trkpt lat="33.483958" lon="126.879962"></trkpt>
      <trkpt lat="33.4839905" lon="126.8800034"></trkpt>
      <trkpt lat="33.4840278" lon="126.8800384"></trkpt>
      <trkpt lat="33.4841064" lon="126.8800757"></trkpt>
      <trkpt lat="33.484164" lon="126.8800977"></trkpt>
      <trkpt lat="33.4842724" lon="126.8801521"></trkpt>
      <trkpt lat="33.4843395" lon="126.8802512"></trkpt>
      <trkpt lat="33.4844824" lon="126.8804178"></trkpt>
      <trkpt lat="33.4846065" lon="126.8805519"></trkpt>
      <trkpt lat="33.484721" lon="126.8806583"></trkpt>
      <trkpt lat="33.4848016" lon="126.880703"></trkpt>
      <trkpt lat="33.4849033" lon="126.8807217"></trkpt>
      <trkpt lat="33.4849805" lon="126.8807615"></trkpt>
      <trkpt lat="33.4850266" lon="126.8808045"></trkpt>
      <trkpt lat="33.4850551" lon="126.8808655"></trkpt>
      <trkpt lat="33.4850751" lon="126.8808959"></trkpt>
      <trkpt lat="33.4851239" lon="126.8809839"></trkpt>
      <trkpt lat="33.4851669" lon="126.8810556"></trkpt>
      <trkpt lat="33.4851899" lon="126.8811133"></trkpt>
      <trkpt lat="33.485211" lon="126.8811762"></trkpt>
      <trkpt lat="33.4852229" lon="126.8813125"></trkpt>
      <trkpt lat="33.4852353" lon="126.8814136"></trkpt>
      <trkpt lat="33.485255" lon="126.8814648"></trkpt>
      <trkpt lat="33.4852725" lon="126.8815424"></trkpt>
      <trkpt lat="33.4853247" lon="126.8816194"></trkpt>
      <trkpt lat="33.4853945" lon="126.8816438"></trkpt>
      <trkpt lat="33.4854698" lon="126.881669"></trkpt>
      <trkpt lat="33.4855219" lon="126.8816901"></trkpt>
      <trkpt lat="33.4855917" lon="126.8817421"></trkpt>
      <trkpt lat="33.4856649" lon="126.8817787"></trkpt>
      <trkpt lat="33.4857361" lon="126.8817803"></trkpt>
      <trkpt lat="33.4857971" lon="126.8817763"></trkpt>
      <trkpt lat="33.4859299" lon="126.8817876"></trkpt>
      <trkpt lat="33.4860642" lon="126.8818339"></trkpt>
      <trkpt lat="33.4861203" lon="126.881844"></trkpt>
      <trkpt lat="33.4861911" lon="126.8818655"></trkpt>
      <trkpt lat="33.4862332" lon="126.8818958"></trkpt>
      <trkpt lat="33.486273" lon="126.8819367"></trkpt>
      <trkpt lat="33.4863537" lon="126.8820138"></trkpt>
      <trkpt lat="33.4863903" lon="126.8820421"></trkpt>
      <trkpt lat="33.4864319" lon="126.8820596"></trkpt>
      <trkpt lat="33.4864763" lon="126.8820701"></trkpt>
      <trkpt lat="33.4865272" lon="126.8820732"></trkpt>
      <trkpt lat="33.4866017" lon="126.8820561"></trkpt>
      <trkpt lat="33.4866285" lon="126.8820588"></trkpt>
      <trkpt lat="33.4866482" lon="126.8820722"></trkpt>
      <trkpt lat="33.4866664" lon="126.8820958"></trkpt>
      <trkpt lat="33.4867058" lon="126.882151"></trkpt>
      <trkpt lat="33.4867481" lon="126.8821919"></trkpt>
      <trkpt lat="33.4867938" lon="126.8822206"></trkpt>
      <trkpt lat="33.4868382" lon="126.8822364"></trkpt>
      <trkpt lat="33.4868742" lon="126.8822421"></trkpt>
      <trkpt lat="33.4869068" lon="126.8822415"></trkpt>
      <trkpt lat="33.486937" lon="126.8822332"></trkpt>
      <trkpt lat="33.486966" lon="126.8822181"></trkpt>
      <trkpt lat="33.487027" lon="126.8821694"></trkpt>
      <trkpt lat="33.4870591" lon="126.8821479"></trkpt>
      <trkpt lat="33.487111" lon="126.8821259"></trkpt>
      <trkpt lat="33.4872167" lon="126.882091"></trkpt>
      <trkpt lat="33.4872617" lon="126.8820735"></trkpt>
      <trkpt lat="33.4873138" lon="126.8820472"></trkpt>
      <trkpt lat="33.4873733" lon="126.8820155"></trkpt>
      <trkpt lat="33.4874597" lon="126.8819665"></trkpt>
      <trkpt lat="33.4875156" lon="126.8819277"></trkpt>
      <trkpt lat="33.4875604" lon="126.8818928"></trkpt>
      <trkpt lat="33.4875946" lon="126.881856"></trkpt>
      <trkpt lat="33.4876304" lon="126.8818092"></trkpt>
      <trkpt lat="33.4876763" lon="126.8817237"></trkpt>
      <trkpt lat="33.4877044" lon="126.8816771"></trkpt>
      <trkpt lat="33.4877433" lon="126.8816296"></trkpt>
      <trkpt lat="33.4877938" lon="126.8815916"></trkpt>
      <trkpt lat="33.487846" lon="126.8815617"></trkpt>
      <trkpt lat="33.4879081" lon="126.8815564"></trkpt>
      <trkpt lat="33.4879845" lon="126.8815739"></trkpt>
      <trkpt lat="33.4879601" lon="126.8816765"></trkpt>
      <trkpt lat="33.4879401" lon="126.881774"></trkpt>
      <trkpt lat="33.487915" lon="126.8819244"></trkpt>
      <trkpt lat="33.4878914" lon="126.8819932"></trkpt>
      <trkpt lat="33.4878675" lon="126.8820419"></trkpt>
      <trkpt lat="33.4878371" lon="126.8820908"></trkpt>
      <trkpt lat="33.4877827" lon="126.8821542"></trkpt>
      <trkpt lat="33.487761" lon="126.8821805"></trkpt>
      <trkpt lat="33.4877492" lon="126.8822118"></trkpt>
      <trkpt lat="33.4877479" lon="126.8822559"></trkpt>
      <trkpt lat="33.4877553" lon="126.8823037"></trkpt>
      <trkpt lat="33.4877704" lon="126.882354"></trkpt>
      <trkpt lat="33.4877959" lon="126.8824137"></trkpt>
      <trkpt lat="33.4878196" lon="126.8824653"></trkpt>
      <trkpt lat="33.487842" lon="126.8825331"></trkpt>
      <trkpt lat="33.4878535" lon="126.8826029"></trkpt>
      <trkpt lat="33.4878616" lon="126.8826992"></trkpt>
      <trkpt lat="33.4878603" lon="126.8827406"></trkpt>
      <trkpt lat="33.4878502" lon="126.8827808"></trkpt>
      <trkpt lat="33.487786" lon="126.882962"></trkpt>
      <trkpt lat="33.4877674" lon="126.8829933"></trkpt>
      <trkpt lat="33.4877467" lon="126.8830177"></trkpt>
      <trkpt lat="33.4877166" lon="126.8830396"></trkpt>
      <trkpt lat="33.4876837" lon="126.8830478"></trkpt>
      <trkpt lat="33.4876525" lon="126.8830518"></trkpt>
      <trkpt lat="33.4874506" lon="126.883025"></trkpt>
      <trkpt lat="33.4874223" lon="126.8830275"></trkpt>
      <trkpt lat="33.4873947" lon="126.8830396"></trkpt>
      <trkpt lat="33.4873674" lon="126.8830593"></trkpt>
      <trkpt lat="33.4873443" lon="126.8830851"></trkpt>
      <trkpt lat="33.4873265" lon="126.8831146"></trkpt>
      <trkpt lat="33.4872637" lon="126.8832595"></trkpt>
      <trkpt lat="33.4872519" lon="126.8832924"></trkpt>
      <trkpt lat="33.4872461" lon="126.8833252"></trkpt>
      <trkpt lat="33.4872437" lon="126.88336"></trkpt>
      <trkpt lat="33.4872438" lon="126.8836604"></trkpt>
      <trkpt lat="33.4872369" lon="126.8838329"></trkpt>
      <trkpt lat="33.4872283" lon="126.8839814"></trkpt>
      <trkpt lat="33.4872183" lon="126.8840962"></trkpt>
      <trkpt lat="33.4872038" lon="126.8842109"></trkpt>
      <trkpt lat="33.4871864" lon="126.8842983"></trkpt>
      <trkpt lat="33.4871668" lon="126.8843765"></trkpt>
      <trkpt lat="33.4871469" lon="126.8844471"></trkpt>
      <trkpt lat="33.4871221" lon="126.8845209"></trkpt>
      <trkpt lat="33.4870978" lon="126.8845797"></trkpt>
      <trkpt lat="33.4870923" lon="126.884603"></trkpt>
      <trkpt lat="33.4870892" lon="126.8846236"></trkpt>
      <trkpt lat="33.4870885" lon="126.884647"></trkpt>
      <trkpt lat="33.4870968" lon="126.8846712"></trkpt>
      <trkpt lat="33.4871114" lon="126.8847018"></trkpt>
      <trkpt lat="33.4871446" lon="126.8847453"></trkpt>
      <trkpt lat="33.4871928" lon="126.8848096"></trkpt>
      <trkpt lat="33.4872522" lon="126.8848724"></trkpt>
      <trkpt lat="33.4874185" lon="126.8850136"></trkpt>
      <trkpt lat="33.487492" lon="126.8850758"></trkpt>
      <trkpt lat="33.4875438" lon="126.8851313"></trkpt>
      <trkpt lat="33.48758" lon="126.8851787"></trkpt>
      <trkpt lat="33.4876368" lon="126.8852691"></trkpt>
      <trkpt lat="33.4876952" lon="126.8853637"></trkpt>
      <trkpt lat="33.4877595" lon="126.8854617"></trkpt>
      <trkpt lat="33.4877858" lon="126.8854997"></trkpt>
      <trkpt lat="33.4878159" lon="126.8855315"></trkpt>
      <trkpt lat="33.4878911" lon="126.8856008"></trkpt>
      <trkpt lat="33.4879271" lon="126.8856343"></trkpt>
      <trkpt lat="33.4879502" lon="126.8856629"></trkpt>
      <trkpt lat="33.4879679" lon="126.8856951"></trkpt>
      <trkpt lat="33.4879828" lon="126.8857342"></trkpt>
      <trkpt lat="33.4879882" lon="126.8857653"></trkpt>
      <trkpt lat="33.4879892" lon="126.8858017"></trkpt>
      <trkpt lat="33.4879864" lon="126.8858494"></trkpt>
      <trkpt lat="33.487986" lon="126.8859166"></trkpt>
      <trkpt lat="33.4879912" lon="126.8859474"></trkpt>
      <trkpt lat="33.4880748" lon="126.8861941"></trkpt>
      <trkpt lat="33.4880843" lon="126.8862264"></trkpt>
      <trkpt lat="33.4880912" lon="126.8862615"></trkpt>
      <trkpt lat="33.4880975" lon="126.8863028"></trkpt>
      <trkpt lat="33.4881045" lon="126.8863668"></trkpt>
      <trkpt lat="33.488118" lon="126.8864083"></trkpt>
      <trkpt lat="33.48814" lon="126.8864514"></trkpt>
      <trkpt lat="33.4881646" lon="126.8864817"></trkpt>
      <trkpt lat="33.4882059" lon="126.886491"></trkpt>
      <trkpt lat="33.4882395" lon="126.8865084"></trkpt>
      <trkpt lat="33.4882875" lon="126.8865244"></trkpt>
      <trkpt lat="33.4883373" lon="126.8865295"></trkpt>
      <trkpt lat="33.4885462" lon="126.8865256"></trkpt>
      <trkpt lat="33.4885923" lon="126.8865281"></trkpt>
      <trkpt lat="33.4886344" lon="126.8865353"></trkpt>
      <trkpt lat="33.4886682" lon="126.8865471"></trkpt>
      <trkpt lat="33.4886999" lon="126.8865645"></trkpt>
      <trkpt lat="33.4887334" lon="126.8865891"></trkpt>
      <trkpt lat="33.4887674" lon="126.8866255"></trkpt>
      <trkpt lat="33.488797" lon="126.8866705"></trkpt>
      <trkpt lat="33.4888165" lon="126.8867008"></trkpt>
      <trkpt lat="33.4888337" lon="126.8867454"></trkpt>
      <trkpt lat="33.4888442" lon="126.8867901"></trkpt>
      <trkpt lat="33.4888498" lon="126.886837"></trkpt>
      <trkpt lat="33.4888487" lon="126.8868825"></trkpt>
      <trkpt lat="33.4888429" lon="126.8869343"></trkpt>
      <trkpt lat="33.488831" lon="126.8869898"></trkpt>
      <trkpt lat="33.4888169" lon="126.8870492"></trkpt>
      <trkpt lat="33.4887962" lon="126.8871115"></trkpt>
      <trkpt lat="33.4887587" lon="126.8871913"></trkpt>
      <trkpt lat="33.4887441" lon="126.8872262"></trkpt>
      <trkpt lat="33.488744" lon="126.8872595"></trkpt>
      <trkpt lat="33.4887557" lon="126.8872911"></trkpt>
      <trkpt lat="33.4888002" lon="126.887376"></trkpt>
      <trkpt lat="33.4888708" lon="126.8874372"></trkpt>
      <trkpt lat="33.4889782" lon="126.8875047"></trkpt>
      <trkpt lat="33.4890012" lon="126.8875127"></trkpt>
      <trkpt lat="33.4891676" lon="126.8876693"></trkpt>
      <trkpt lat="33.4892227" lon="126.8877154"></trkpt>
      <trkpt lat="33.4892749" lon="126.8877519"></trkpt>
      <trkpt lat="33.4893316" lon="126.8877898"></trkpt>
      <trkpt lat="33.489384" lon="126.8878122"></trkpt>
      <trkpt lat="33.4894318" lon="126.887836"></trkpt>
      <trkpt lat="33.4894781" lon="126.8878735"></trkpt>
      <trkpt lat="33.4895344" lon="126.8879244"></trkpt>
      <trkpt lat="33.4895895" lon="126.8879844"></trkpt>
      <trkpt lat="33.4896312" lon="126.8880403"></trkpt>
      <trkpt lat="33.4896617" lon="126.8880948"></trkpt>
      <trkpt lat="33.4896844" lon="126.8881232"></trkpt>
      <trkpt lat="33.4897086" lon="126.8881481"></trkpt>
      <trkpt lat="33.489734" lon="126.8881677"></trkpt>
      <trkpt lat="33.4897596" lon="126.8881804"></trkpt>
      <trkpt lat="33.4898101" lon="126.8881963"></trkpt>
      <trkpt lat="33.4898505" lon="126.8882056"></trkpt>
      <trkpt lat="33.4899056" lon="126.8882141"></trkpt>
      <trkpt lat="33.4899585" lon="126.8882307"></trkpt>
      <trkpt lat="33.4902113" lon="126.8882554"></trkpt>
      <trkpt lat="33.4905009" lon="126.8882684"></trkpt>
      <trkpt lat="33.4905699" lon="126.8886069"></trkpt>
      <trkpt lat="33.490614" lon="126.8887732"></trkpt>
      <trkpt lat="33.4906639" lon="126.8889458"></trkpt>
      <trkpt lat="33.4908149" lon="126.8893806"></trkpt>
      <trkpt lat="33.4908743" lon="126.8895376"></trkpt>
      <trkpt lat="33.4909004" lon="126.8896024"></trkpt>
      <trkpt lat="33.4909319" lon="126.889655"></trkpt>
      <trkpt lat="33.4910257" lon="126.8898079"></trkpt>
      <trkpt lat="33.4910575" lon="126.889871"></trkpt>
      <trkpt lat="33.4910835" lon="126.8899458"></trkpt>
      <trkpt lat="33.4911025" lon="126.8900259"></trkpt>
      <trkpt lat="33.4911223" lon="126.8901281"></trkpt>
      <trkpt lat="33.4911515" lon="126.8903818"></trkpt>
      <trkpt lat="33.4911649" lon="126.890455"></trkpt>
      <trkpt lat="33.4912117" lon="126.8906607"></trkpt>
      <trkpt lat="33.4912594" lon="126.8908051"></trkpt>
      <trkpt lat="33.4913153" lon="126.8910156"></trkpt>
      <trkpt lat="33.4913623" lon="126.8912007"></trkpt>
      <trkpt lat="33.4914126" lon="126.8914823"></trkpt>
      <trkpt lat="33.4914507" lon="126.891607"></trkpt>
      <trkpt lat="33.4915032" lon="126.8919262"></trkpt>
      <trkpt lat="33.4915573" lon="126.8921355"></trkpt>
      <trkpt lat="33.4915769" lon="126.8921887"></trkpt>
      <trkpt lat="33.4916306" lon="126.8923141"></trkpt>
      <trkpt lat="33.4916786" lon="126.8924151"></trkpt>
      <trkpt lat="33.4917033" lon="126.8924682"></trkpt>
      <trkpt lat="33.4917243" lon="126.8925275"></trkpt>
      <trkpt lat="33.4917396" lon="126.8925858"></trkpt>
      <trkpt lat="33.4917483" lon="126.8926337"></trkpt>
      <trkpt lat="33.4917498" lon="126.8926677"></trkpt>
      <trkpt lat="33.4917483" lon="126.8927452"></trkpt>
      <trkpt lat="33.4917352" lon="126.8928393"></trkpt>
      <trkpt lat="33.4917176" lon="126.8929546"></trkpt>
      <trkpt lat="33.4916985" lon="126.8931596"></trkpt>
      <trkpt lat="33.4917243" lon="126.8933225"></trkpt>
      <trkpt lat="33.4918254" lon="126.8935315"></trkpt>
      <trkpt lat="33.4918091" lon="126.8937854"></trkpt>
      <trkpt lat="33.4918479" lon="126.893789"></trkpt>
      <trkpt lat="33.4919394" lon="126.8937974"></trkpt>
      <trkpt lat="33.4920584" lon="126.8937499"></trkpt>
      <trkpt lat="33.4920617" lon="126.8938033"></trkpt>
      <trkpt lat="33.4920786" lon="126.8938396"></trkpt>
      <trkpt lat="33.4921262" lon="126.8939323"></trkpt>
      <trkpt lat="33.4921468" lon="126.8939735"></trkpt>
      <trkpt lat="33.4921785" lon="126.8940569"></trkpt>
      <trkpt lat="33.4922336" lon="126.8940894"></trkpt>
      <trkpt lat="33.4922755" lon="126.8941092"></trkpt>
      <trkpt lat="33.4922671" lon="126.8941947"></trkpt>
      <trkpt lat="33.4922951" lon="126.8943134"></trkpt>
      <trkpt lat="33.492289" lon="126.8943937"></trkpt>
      <trkpt lat="33.4922794" lon="126.8945193"></trkpt>
      <trkpt lat="33.4922755" lon="126.8946178"></trkpt>
      <trkpt lat="33.4922885" lon="126.8946739"></trkpt>
      <trkpt lat="33.4923303" lon="126.8949189"></trkpt>
      <trkpt lat="33.4924343" lon="126.895228"></trkpt>
      <trkpt lat="33.4925026" lon="126.8953816"></trkpt>
      <trkpt lat="33.4925691" lon="126.8955532"></trkpt>
      <trkpt lat="33.4926133" lon="126.8956766"></trkpt>
      <trkpt lat="33.4926519" lon="126.8958168"></trkpt>
      <trkpt lat="33.4926631" lon="126.8958966"></trkpt>
      <trkpt lat="33.4926703" lon="126.8961065"></trkpt>
      <trkpt lat="33.4926597" lon="126.8963049"></trkpt>
      <trkpt lat="33.4927234" lon="126.8962921"></trkpt>
      <trkpt lat="33.4928073" lon="126.8962988"></trkpt>
      <trkpt lat="33.4928615" lon="126.896324"></trkpt>
      <trkpt lat="33.4928625" lon="126.8963767"></trkpt>
      <trkpt lat="33.4928583" lon="126.8964301"></trkpt>
      <trkpt lat="33.4927314" lon="126.8964191"></trkpt>
      <trkpt lat="33.4927426" lon="126.8964846"></trkpt>
      <trkpt lat="33.4927615" lon="126.8965292"></trkpt>
      <trkpt lat="33.4929358" lon="126.896805"></trkpt>
      <trkpt lat="33.4929599" lon="126.8968422"></trkpt>
      <trkpt lat="33.4929774" lon="126.8968789"></trkpt>
      <trkpt lat="33.4929841" lon="126.896911"></trkpt>
      <trkpt lat="33.4929869" lon="126.8969427"></trkpt>
      <trkpt lat="33.4929854" lon="126.8969768"></trkpt>
      <trkpt lat="33.4929459" lon="126.8973864"></trkpt>
      <trkpt lat="33.4929386" lon="126.89744"></trkpt>
      <trkpt lat="33.4929255" lon="126.8974884"></trkpt>
      <trkpt lat="33.4929094" lon="126.8975322"></trkpt>
      <trkpt lat="33.4928819" lon="126.8975852"></trkpt>
      <trkpt lat="33.4928728" lon="126.8976162"></trkpt>
      <trkpt lat="33.4928812" lon="126.8976526"></trkpt>
      <trkpt lat="33.492916" lon="126.8977216"></trkpt>
      <trkpt lat="33.4929751" lon="126.8978388"></trkpt>
      <trkpt lat="33.4930273" lon="126.8979327"></trkpt>
      <trkpt lat="33.4930513" lon="126.8979691"></trkpt>
      <trkpt lat="33.4930743" lon="126.898002"></trkpt>
      <trkpt lat="33.4930941" lon="126.8980254"></trkpt>
      <trkpt lat="33.4931148" lon="126.8980407"></trkpt>
      <trkpt lat="33.4931375" lon="126.8980589"></trkpt>
      <trkpt lat="33.4931596" lon="126.8980937"></trkpt>
      <trkpt lat="33.4931778" lon="126.8981355"></trkpt>
      <trkpt lat="33.4932009" lon="126.8981941"></trkpt>
      <trkpt lat="33.4932157" lon="126.8982456"></trkpt>
      <trkpt lat="33.4932217" lon="126.8982807"></trkpt>
      <trkpt lat="33.4932231" lon="126.8983334"></trkpt>
      <trkpt lat="33.4932179" lon="126.8983824"></trkpt>
      <trkpt lat="33.4932117" lon="126.8984208"></trkpt>
      <trkpt lat="33.4932038" lon="126.8984504"></trkpt>
      <trkpt lat="33.4931765" lon="126.8985233"></trkpt>
      <trkpt lat="33.4931672" lon="126.8985599"></trkpt>
      <trkpt lat="33.4931628" lon="126.8985942"></trkpt>
      <trkpt lat="33.4931614" lon="126.8986267"></trkpt>
      <trkpt lat="33.493169" lon="126.89866"></trkpt>
      <trkpt lat="33.4931833" lon="126.8986882"></trkpt>
      <trkpt lat="33.4932035" lon="126.8987164"></trkpt>
      <trkpt lat="33.4932609" lon="126.8987785"></trkpt>
      <trkpt lat="33.4933963" lon="126.8989004"></trkpt>
      <trkpt lat="33.4933288" lon="126.8990156"></trkpt>
      <trkpt lat="33.4932979" lon="126.8990795"></trkpt>
      <trkpt lat="33.4932748" lon="126.8991458"></trkpt>
      <trkpt lat="33.4932589" lon="126.8992153"></trkpt>
      <trkpt lat="33.4932253" lon="126.8994301"></trkpt>
      <trkpt lat="33.4932033" lon="126.899568"></trkpt>
      <trkpt lat="33.4931908" lon="126.8996293"></trkpt>
      <trkpt lat="33.493171" lon="126.8996867"></trkpt>
      <trkpt lat="33.4930885" lon="126.8998929"></trkpt>
      <trkpt lat="33.4930688" lon="126.8999174"></trkpt>
      <trkpt lat="33.4930449" lon="126.8999302"></trkpt>
      <trkpt lat="33.4930003" lon="126.8999374"></trkpt>
      <trkpt lat="33.4926492" lon="126.8999538"></trkpt>
      <trkpt lat="33.4927085" lon="126.9001032"></trkpt>
      <trkpt lat="33.4926742" lon="126.9001639"></trkpt>
      <trkpt lat="33.4926042" lon="126.9003067"></trkpt>
      <trkpt lat="33.4922515" lon="126.9008198"></trkpt>
      <trkpt lat="33.4915377" lon="126.9018581"></trkpt>
      <trkpt lat="33.4914992" lon="126.9019141"></trkpt>
      <trkpt lat="33.4914618" lon="126.9019856"></trkpt>
      <trkpt lat="33.4914297" lon="126.9020535"></trkpt>
      <trkpt lat="33.4913924" lon="126.9021439"></trkpt>
      <trkpt lat="33.4912178" lon="126.9026534"></trkpt>
      <trkpt lat="33.4911233" lon="126.9028999"></trkpt>
      <trkpt lat="33.4910498" lon="126.9031404"></trkpt>
      <trkpt lat="33.4910321" lon="126.9032409"></trkpt>
      <trkpt lat="33.4910211" lon="126.9033356"></trkpt>
      <trkpt lat="33.4910151" lon="126.9034195"></trkpt>
      <trkpt lat="33.4909782" lon="126.9037678"></trkpt>
      <trkpt lat="33.4908948" lon="126.9040391"></trkpt>
      <trkpt lat="33.490835" lon="126.9041957"></trkpt>
      <trkpt lat="33.4907584" lon="126.9043261"></trkpt>
      <trkpt lat="33.4903303" lon="126.9047744"></trkpt>
      <trkpt lat="33.4902978" lon="126.9047918"></trkpt>
      <trkpt lat="33.4902625" lon="126.9048003"></trkpt>
      <trkpt lat="33.4902344" lon="126.9048021"></trkpt>
      <trkpt lat="33.4902142" lon="126.9048065"></trkpt>
      <trkpt lat="33.4901893" lon="126.9048179"></trkpt>
      <trkpt lat="33.4900175" lon="126.904935"></trkpt>
      <trkpt lat="33.4898461" lon="126.9050573"></trkpt>
      <trkpt lat="33.4894194" lon="126.9053269"></trkpt>
      <trkpt lat="33.4893936" lon="126.905335"></trkpt>
      <trkpt lat="33.4893691" lon="126.9053366"></trkpt>
      <trkpt lat="33.4893488" lon="126.9053337"></trkpt>
      <trkpt lat="33.4893288" lon="126.905325"></trkpt>
      <trkpt lat="33.4893102" lon="126.9053097"></trkpt>
      <trkpt lat="33.4892914" lon="126.9052893"></trkpt>
      <trkpt lat="33.489139" lon="126.9050969"></trkpt>
      <trkpt lat="33.4891035" lon="126.905058"></trkpt>
      <trkpt lat="33.4890754" lon="126.9050329"></trkpt>
      <trkpt lat="33.4890561" lon="126.9050205"></trkpt>
      <trkpt lat="33.4890363" lon="126.9050148"></trkpt>
      <trkpt lat="33.4890083" lon="126.9050115"></trkpt>
      <trkpt lat="33.4889739" lon="126.9050154"></trkpt>
      <trkpt lat="33.4889052" lon="126.9050273"></trkpt>
      <trkpt lat="33.4888558" lon="126.9050422"></trkpt>
      <trkpt lat="33.4888138" lon="126.9050528"></trkpt>
      <trkpt lat="33.4888094" lon="126.9050323"></trkpt>
      <trkpt lat="33.4887719" lon="126.904919"></trkpt>
      <trkpt lat="33.48874" lon="126.9048243"></trkpt>
      <trkpt lat="33.4887096" lon="126.9047393"></trkpt>
      <trkpt lat="33.4886753" lon="126.9046526"></trkpt>
      <trkpt lat="33.4886404" lon="126.9045715"></trkpt>
      <trkpt lat="33.4886038" lon="126.9044937"></trkpt>
      <trkpt lat="33.4885671" lon="126.9044226"></trkpt>
      <trkpt lat="33.4885163" lon="126.9043317"></trkpt>
      <trkpt lat="33.488464" lon="126.9042431"></trkpt>
      <trkpt lat="33.4884061" lon="126.9041531"></trkpt>
      <trkpt lat="33.4883501" lon="126.9040747"></trkpt>
      <trkpt lat="33.4882791" lon="126.9039855"></trkpt>
      <trkpt lat="33.4879966" lon="126.903616"></trkpt>
      <trkpt lat="33.4879179" lon="126.9035245"></trkpt>
      <trkpt lat="33.4878481" lon="126.9034517"></trkpt>
      <trkpt lat="33.4877905" lon="126.903396"></trkpt>
      <trkpt lat="33.4877285" lon="126.9033377"></trkpt>
      <trkpt lat="33.4876647" lon="126.9032814"></trkpt>
      <trkpt lat="33.4876009" lon="126.9032311"></trkpt>
      <trkpt lat="33.4875316" lon="126.9031781"></trkpt>
      <trkpt lat="33.4874399" lon="126.9031164"></trkpt>
      <trkpt lat="33.4872631" lon="126.9029957"></trkpt>
      <trkpt lat="33.4870025" lon="126.9028241"></trkpt>
      <trkpt lat="33.4863907" lon="126.902415"></trkpt>
      <trkpt lat="33.4862654" lon="126.9023366"></trkpt>
      <trkpt lat="33.4861726" lon="126.9022862"></trkpt>
      <trkpt lat="33.4860926" lon="126.902246"></trkpt>
      <trkpt lat="33.4859981" lon="126.9022071"></trkpt>
      <trkpt lat="33.4858754" lon="126.9021678"></trkpt>
      <trkpt lat="33.4857555" lon="126.9021321"></trkpt>
      <trkpt lat="33.4856324" lon="126.9021018"></trkpt>
      <trkpt lat="33.4854863" lon="126.9020661"></trkpt>
      <trkpt lat="33.4843688" lon="126.9018384"></trkpt>
      <trkpt lat="33.4842498" lon="126.9018182"></trkpt>
      <trkpt lat="33.4840888" lon="126.901792"></trkpt>
      <trkpt lat="33.4839221" lon="126.9017712"></trkpt>
      <trkpt lat="33.4837745" lon="126.9017558"></trkpt>
      <trkpt lat="33.4836705" lon="126.9017498"></trkpt>
      <trkpt lat="33.4829535" lon="126.9017378"></trkpt>
      <trkpt lat="33.4824004" lon="126.9017271"></trkpt>
      <trkpt lat="33.4822667" lon="126.9017307"></trkpt>
      <trkpt lat="33.4821822" lon="126.901733"></trkpt>
      <trkpt lat="33.4821015" lon="126.9017407"></trkpt>
      <trkpt lat="33.4820285" lon="126.901755"></trkpt>
      <trkpt lat="33.4819569" lon="126.9017713"></trkpt>
      <trkpt lat="33.4818707" lon="126.9018021"></trkpt>
      <trkpt lat="33.481803" lon="126.9018309"></trkpt>
      <trkpt lat="33.4817309" lon="126.9018678"></trkpt>
      <trkpt lat="33.4816447" lon="126.9019198"></trkpt>
      <trkpt lat="33.4815659" lon="126.9019753"></trkpt>
      <trkpt lat="33.4814926" lon="126.9020334"></trkpt>
      <trkpt lat="33.4814104" lon="126.9020998"></trkpt>
      <trkpt lat="33.4806811" lon="126.9027087"></trkpt>
      <trkpt lat="33.479989" lon="126.9032784"></trkpt>
      <trkpt lat="33.4797756" lon="126.9034611"></trkpt>
      <trkpt lat="33.479678" lon="126.903552"></trkpt>
      <trkpt lat="33.4795923" lon="126.903639"></trkpt>
      <trkpt lat="33.4795461" lon="126.9036892"></trkpt>
      <trkpt lat="33.4794909" lon="126.9037568"></trkpt>
      <trkpt lat="33.4794403" lon="126.9038228"></trkpt>
      <trkpt lat="33.4793904" lon="126.9038961"></trkpt>
      <trkpt lat="33.4793382" lon="126.9039814"></trkpt>
      <trkpt lat="33.4792919" lon="126.9040626"></trkpt>
      <trkpt lat="33.4792513" lon="126.904139"></trkpt>
      <trkpt lat="33.4792141" lon="126.9042194"></trkpt>
      <trkpt lat="33.4791665" lon="126.9043328"></trkpt>
      <trkpt lat="33.479127" lon="126.9044395"></trkpt>
      <trkpt lat="33.4790873" lon="126.9045662"></trkpt>
      <trkpt lat="33.4790563" lon="126.9046839"></trkpt>
      <trkpt lat="33.4790277" lon="126.904812"></trkpt>
      <trkpt lat="33.4790015" lon="126.9049376"></trkpt>
      <trkpt lat="33.4783255" lon="126.9079919"></trkpt>
      <trkpt lat="33.4782843" lon="126.9081751"></trkpt>
      <trkpt lat="33.4782403" lon="126.908348"></trkpt>
      <trkpt lat="33.4782119" lon="126.9084192"></trkpt>
      <trkpt lat="33.4781812" lon="126.908502"></trkpt>
      <trkpt lat="33.4781031" lon="126.9087192"></trkpt>
      <trkpt lat="33.4779527" lon="126.9090826"></trkpt>
      <trkpt lat="33.4779132" lon="126.9091874"></trkpt>
      <trkpt lat="33.4778638" lon="126.9092962"></trkpt>
      <trkpt lat="33.47781" lon="126.9094125"></trkpt>
      <trkpt lat="33.4777657" lon="126.9094846"></trkpt>
      <trkpt lat="33.4777214" lon="126.9095516"></trkpt>
      <trkpt lat="33.4776279" lon="126.9096516"></trkpt>
      <trkpt lat="33.4775696" lon="126.9097218"></trkpt>
      <trkpt lat="33.4775005" lon="126.9097855"></trkpt>
      <trkpt lat="33.4774376" lon="126.9098394"></trkpt>
      <trkpt lat="33.4773579" lon="126.909891"></trkpt>
      <trkpt lat="33.477271" lon="126.9099438"></trkpt>
      <trkpt lat="33.4772227" lon="126.9099723"></trkpt>
      <trkpt lat="33.4771703" lon="126.9099977"></trkpt>
      <trkpt lat="33.477097" lon="126.9100272"></trkpt>
      <trkpt lat="33.4770271" lon="126.9100462"></trkpt>
      <trkpt lat="33.4769226" lon="126.9100638"></trkpt>
      <trkpt lat="33.4765907" lon="126.9101214"></trkpt>
      <trkpt lat="33.4762889" lon="126.9101763"></trkpt>
      <trkpt lat="33.4761845" lon="126.9102018"></trkpt>
      <trkpt lat="33.4761087" lon="126.9102141"></trkpt>
      <trkpt lat="33.4760459" lon="126.9102345"></trkpt>
      <trkpt lat="33.4759648" lon="126.9102562"></trkpt>
      <trkpt lat="33.4758858" lon="126.9102891"></trkpt>
      <trkpt lat="33.4758155" lon="126.9103201"></trkpt>
      <trkpt lat="33.475759" lon="126.9103431"></trkpt>
      <trkpt lat="33.4756716" lon="126.9103902"></trkpt>
      <trkpt lat="33.4755422" lon="126.9104681"></trkpt>
      <trkpt lat="33.4754684" lon="126.9105148"></trkpt>
      <trkpt lat="33.4753753" lon="126.9105769"></trkpt>
      <trkpt lat="33.4753077" lon="126.9106298"></trkpt>
      <trkpt lat="33.4752166" lon="126.9107092"></trkpt>
      <trkpt lat="33.4750428" lon="126.9108755"></trkpt>
      <trkpt lat="33.4748372" lon="126.91106"></trkpt>
      <trkpt lat="33.4747662" lon="126.9111144"></trkpt>
      <trkpt lat="33.4747007" lon="126.9111553"></trkpt>
      <trkpt lat="33.4746524" lon="126.9111863"></trkpt>
      <trkpt lat="33.4745704" lon="126.9112297"></trkpt>
      <trkpt lat="33.4744754" lon="126.9112573"></trkpt>
      <trkpt lat="33.4743011" lon="126.911308"></trkpt>
      <trkpt lat="33.4741079" lon="126.9113573"></trkpt>
      <trkpt lat="33.4739021" lon="126.9114084"></trkpt>
      <trkpt lat="33.4738155" lon="126.9114227"></trkpt>
      <trkpt lat="33.4737279" lon="126.9114454"></trkpt>
      <trkpt lat="33.4736724" lon="126.9114618"></trkpt>
      <trkpt lat="33.4736208" lon="126.9114836"></trkpt>
      <trkpt lat="33.4735734" lon="126.9115086"></trkpt>
      <trkpt lat="33.4735136" lon="126.9115417"></trkpt>
      <trkpt lat="33.4734625" lon="126.9115707"></trkpt>
      <trkpt lat="33.4734132" lon="126.9116023"></trkpt>
      <trkpt lat="33.4733648" lon="126.9116344"></trkpt>
      <trkpt lat="33.4733198" lon="126.9116677"></trkpt>
      <trkpt lat="33.4732349" lon="126.9117364"></trkpt>
      <trkpt lat="33.4731304" lon="126.911822"></trkpt>
      <trkpt lat="33.4729986" lon="126.9119386"></trkpt>
      <trkpt lat="33.472842" lon="126.9120757"></trkpt>
      <trkpt lat="33.4727442" lon="126.9121653"></trkpt>
      <trkpt lat="33.4726852" lon="126.9122169"></trkpt>
      <trkpt lat="33.4726166" lon="126.9122807"></trkpt>
      <trkpt lat="33.4725697" lon="126.9123282"></trkpt>
      <trkpt lat="33.472512" lon="126.9123939"></trkpt>
      <trkpt lat="33.4724466" lon="126.912478"></trkpt>
      <trkpt lat="33.472369" lon="126.9125959"></trkpt>
      <trkpt lat="33.4722944" lon="126.9127339"></trkpt>
      <trkpt lat="33.4722437" lon="126.9128432"></trkpt>
      <trkpt lat="33.4722046" lon="126.9129456"></trkpt>
      <trkpt lat="33.472166" lon="126.913077"></trkpt>
      <trkpt lat="33.4721516" lon="126.913132"></trkpt>
      <trkpt lat="33.4721175" lon="126.9132713"></trkpt>
      <trkpt lat="33.4720876" lon="126.9133943"></trkpt>
      <trkpt lat="33.4720615" lon="126.9135188"></trkpt>
      <trkpt lat="33.4720273" lon="126.9136999"></trkpt>
      <trkpt lat="33.4720155" lon="126.9137835"></trkpt>
      <trkpt lat="33.4720062" lon="126.913913"></trkpt>
      <trkpt lat="33.472" lon="126.914049"></trkpt>
      <trkpt lat="33.4719953" lon="126.914224"></trkpt>
      <trkpt lat="33.4719987" lon="126.9144884"></trkpt>
      <trkpt lat="33.4720126" lon="126.9148698"></trkpt>
      <trkpt lat="33.4720558" lon="126.9157906"></trkpt>
      <trkpt lat="33.4720571" lon="126.9159035"></trkpt>
      <trkpt lat="33.4720565" lon="126.9160105"></trkpt>
      <trkpt lat="33.4720525" lon="126.9161"></trkpt>
      <trkpt lat="33.4720446" lon="126.9161835"></trkpt>
      <trkpt lat="33.4720344" lon="126.9162557"></trkpt>
      <trkpt lat="33.4720158" lon="126.9163289"></trkpt>
      <trkpt lat="33.4719902" lon="126.9164067"></trkpt>
      <trkpt lat="33.471959" lon="126.9164859"></trkpt>
      <trkpt lat="33.4719292" lon="126.9165473"></trkpt>
      <trkpt lat="33.4718949" lon="126.9166087"></trkpt>
      <trkpt lat="33.4718514" lon="126.9166809"></trkpt>
      <trkpt lat="33.4718132" lon="126.9167371"></trkpt>
      <trkpt lat="33.4717686" lon="126.9167904"></trkpt>
      <trkpt lat="33.4717256" lon="126.9168346"></trkpt>
      <trkpt lat="33.4716775" lon="126.9168786"></trkpt>
      <trkpt lat="33.4716222" lon="126.9169238"></trkpt>
      <trkpt lat="33.4715712" lon="126.9169632"></trkpt>
      <trkpt lat="33.4714228" lon="126.9170635"></trkpt>
      <trkpt lat="33.4712961" lon="126.9171396"></trkpt>
      <trkpt lat="33.4712498" lon="126.9171736"></trkpt>
      <trkpt lat="33.4712083" lon="126.9172147"></trkpt>
      <trkpt lat="33.4711761" lon="126.917257"></trkpt>
      <trkpt lat="33.4711237" lon="126.9173378"></trkpt>
      <trkpt lat="33.470746" lon="126.9179881"></trkpt>
      <trkpt lat="33.4706913" lon="126.9180871"></trkpt>
      <trkpt lat="33.4706432" lon="126.9181649"></trkpt>
      <trkpt lat="33.4705908" lon="126.9182495"></trkpt>
      <trkpt lat="33.4705509" lon="126.9183091"></trkpt>
      <trkpt lat="33.4703996" lon="126.9185241"></trkpt>
      <trkpt lat="33.4703425" lon="126.9186048"></trkpt>
      <trkpt lat="33.470292" lon="126.9186813"></trkpt>
      <trkpt lat="33.4702361" lon="126.9187738"></trkpt>
      <trkpt lat="33.4701577" lon="126.9189073"></trkpt>
      <trkpt lat="33.4699976" lon="126.9192066"></trkpt>
      <trkpt lat="33.4695108" lon="126.9200999"></trkpt>
      <trkpt lat="33.4693262" lon="126.9204529"></trkpt>
      <trkpt lat="33.4692674" lon="126.9206092"></trkpt>
      <trkpt lat="33.4692131" lon="126.9206394"></trkpt>
      <trkpt lat="33.4693724" lon="126.9209038"></trkpt>
      <trkpt lat="33.4694986" lon="126.9211758"></trkpt>
      <trkpt lat="33.4695243" lon="126.9212338"></trkpt>
      <trkpt lat="33.4695478" lon="126.9212909"></trkpt>
      <trkpt lat="33.4696165" lon="126.9214297"></trkpt>
      <trkpt lat="33.4696344" lon="126.9214553"></trkpt>
      <trkpt lat="33.4696545" lon="126.9214783"></trkpt>
      <trkpt lat="33.4696967" lon="126.9215167"></trkpt>
      <trkpt lat="33.4698327" lon="126.9216252"></trkpt>
      <trkpt lat="33.4699112" lon="126.9216773"></trkpt>
      <trkpt lat="33.4700639" lon="126.9217663"></trkpt>
      <trkpt lat="33.4701417" lon="126.9218163"></trkpt>
      <trkpt lat="33.470181" lon="126.9218487"></trkpt>
      <trkpt lat="33.4702211" lon="126.9218903"></trkpt>
      <trkpt lat="33.4702617" lon="126.9219362"></trkpt>
      <trkpt lat="33.4703878" lon="126.9221343"></trkpt>
      <trkpt lat="33.470402" lon="126.9221672"></trkpt>
      <trkpt lat="33.4704102" lon="126.9222041"></trkpt>
      <trkpt lat="33.4704134" lon="126.9222443"></trkpt>
      <trkpt lat="33.4704106" lon="126.9222947"></trkpt>
      <trkpt lat="33.4703948" lon="126.9223403"></trkpt>
      <trkpt lat="33.4703358" lon="126.9224489"></trkpt>
      <trkpt lat="33.4702577" lon="126.9225562"></trkpt>
      <trkpt lat="33.4702213" lon="126.9225828"></trkpt>
      <trkpt lat="33.4701608" lon="126.9226099"></trkpt>
      <trkpt lat="33.4701198" lon="126.9226141"></trkpt>
      <trkpt lat="33.4700783" lon="126.9226069"></trkpt>
      <trkpt lat="33.4699953" lon="126.9225873"></trkpt>
      <trkpt lat="33.4699266" lon="126.9225843"></trkpt>
      <trkpt lat="33.4698693" lon="126.9226038"></trkpt>
      <trkpt lat="33.4697768" lon="126.9226787"></trkpt>
      <trkpt lat="33.4696467" lon="126.9227721"></trkpt>
      <trkpt lat="33.4695478" lon="126.922844"></trkpt>
      <trkpt lat="33.4691751" lon="126.9231202"></trkpt>
      <trkpt lat="33.4691016" lon="126.9231674"></trkpt>
      <trkpt lat="33.4689181" lon="126.9232777"></trkpt>
      <trkpt lat="33.4689182" lon="126.9242208"></trkpt>
      <trkpt lat="33.4688488" lon="126.9241963"></trkpt>
      <trkpt lat="33.4688472" lon="126.9242994"></trkpt>
      <trkpt lat="33.4688179" lon="126.926126"></trkpt>
      <trkpt lat="33.4687972" lon="126.9278477"></trkpt>
      <trkpt lat="33.4687952" lon="126.927936"></trkpt>
      <trkpt lat="33.4687864" lon="126.9280672"></trkpt>
      <trkpt lat="33.4687687" lon="126.9282396"></trkpt>
      <trkpt lat="33.468732" lon="126.9284916"></trkpt>
      <trkpt lat="33.4688228" lon="126.9287489"></trkpt>
      <trkpt lat="33.4688704" lon="126.9287965"></trkpt>
      <trkpt lat="33.4688238" lon="126.9289014"></trkpt>
      <trkpt lat="33.4687898" lon="126.9289508"></trkpt>
      <trkpt lat="33.469065" lon="126.929156"></trkpt>
      <trkpt lat="33.469168" lon="126.9292572"></trkpt>
      <trkpt lat="33.4692988" lon="126.9294121"></trkpt>
      <trkpt lat="33.4694392" lon="126.9295697"></trkpt>
      <trkpt lat="33.4696462" lon="126.9297427"></trkpt>
      <trkpt lat="33.4701295" lon="126.9299693"></trkpt>
      <trkpt lat="33.4702727" lon="126.9300887"></trkpt>
      <trkpt lat="33.4704864" lon="126.930255"></trkpt>
      <trkpt lat="33.4711917" lon="126.9308194"></trkpt>
      <trkpt lat="33.4711516" lon="126.9311865"></trkpt>
      <trkpt lat="33.4711687" lon="126.9314219"></trkpt>
      <trkpt lat="33.4712478" lon="126.9316586"></trkpt>
      <trkpt lat="33.471332" lon="126.9317974"></trkpt>
      <trkpt lat="33.4714178" lon="126.9318892"></trkpt>
      <trkpt lat="33.4715324" lon="126.9322311"></trkpt>
      <trkpt lat="33.4715877" lon="126.9323499"></trkpt>
      <trkpt lat="33.4717862" lon="126.933231"></trkpt>
      <trkpt lat="33.4716917" lon="126.9334341"></trkpt>
      <trkpt lat="33.4711403" lon="126.9340944"></trkpt>
      <trkpt lat="33.4708913" lon="126.9343449"></trkpt>
      <trkpt lat="33.4707767" lon="126.9344315"></trkpt>
      <trkpt lat="33.4706704" lon="126.9344691"></trkpt>
      <trkpt lat="33.470285" lon="126.9345949"></trkpt>
      <trkpt lat="33.4697277" lon="126.9348091"></trkpt>
      <trkpt lat="33.4696047" lon="126.9348689"></trkpt>
      <trkpt lat="33.4694753" lon="126.9349529"></trkpt>
      <trkpt lat="33.4693766" lon="126.9350288"></trkpt>
      <trkpt lat="33.4693329" lon="126.9350853"></trkpt>
      <trkpt lat="33.4692916" lon="126.9351498"></trkpt>
      <trkpt lat="33.469257" lon="126.9352428"></trkpt>
      <trkpt lat="33.4692274" lon="126.9353445"></trkpt>
      <trkpt lat="33.4691957" lon="126.9355989"></trkpt>
      <trkpt lat="33.4691736" lon="126.9356868"></trkpt>
      <trkpt lat="33.469076" lon="126.935982"></trkpt>
      <trkpt lat="33.4690374" lon="126.9359959"></trkpt>
      <trkpt lat="33.4688905" lon="126.9360235"></trkpt>
      <trkpt lat="33.4688165" lon="126.9360272"></trkpt>
      <trkpt lat="33.4686931" lon="126.9360048"></trkpt>
      <trkpt lat="33.4686694" lon="126.9359825"></trkpt>
      <trkpt lat="33.468226" lon="126.9359049"></trkpt>
      <trkpt lat="33.468084" lon="126.9359144"></trkpt>
      <trkpt lat="33.4679494" lon="126.9359387"></trkpt>
      <trkpt lat="33.4676873" lon="126.936017"></trkpt>
      <trkpt lat="33.46758" lon="126.9360504"></trkpt>
      <trkpt lat="33.4674748" lon="126.9360677"></trkpt>
      <trkpt lat="33.4673379" lon="126.9360702"></trkpt>
      <trkpt lat="33.46723" lon="126.9360408"></trkpt>
      <trkpt lat="33.4671068" lon="126.9359999"></trkpt>
      <trkpt lat="33.4670022" lon="126.9359861"></trkpt>
      <trkpt lat="33.466945" lon="126.9359768"></trkpt>
      <trkpt lat="33.4668682" lon="126.9359721"></trkpt>
      <trkpt lat="33.4664027" lon="126.9360135"></trkpt>
      <trkpt lat="33.466277" lon="126.9360334"></trkpt>
      <trkpt lat="33.4661842" lon="126.9360611"></trkpt>
      <trkpt lat="33.4659963" lon="126.9361194"></trkpt>
      <trkpt lat="33.4658946" lon="126.9361454"></trkpt>
      <trkpt lat="33.4658278" lon="126.9361579"></trkpt>
      <trkpt lat="33.4657594" lon="126.9361617"></trkpt>
      <trkpt lat="33.4656729" lon="126.9361597"></trkpt>
      <trkpt lat="33.4654521" lon="126.9361404"></trkpt>
      <trkpt lat="33.4653991" lon="126.9361296"></trkpt>
      <trkpt lat="33.4653104" lon="126.9360719"></trkpt>
      <trkpt lat="33.4652355" lon="126.9360816"></trkpt>
      <trkpt lat="33.4651801" lon="126.9360689"></trkpt>
      <trkpt lat="33.4650846" lon="126.9360273"></trkpt>
      <trkpt lat="33.4650108" lon="126.9359911"></trkpt>
      <trkpt lat="33.4649701" lon="126.9359743"></trkpt>
      <trkpt lat="33.4649224" lon="126.9359671"></trkpt>
      <trkpt lat="33.4648713" lon="126.9359649"></trkpt>
      <trkpt lat="33.4647929" lon="126.9359666"></trkpt>
      <trkpt lat="33.4647445" lon="126.9359651"></trkpt>
      <trkpt lat="33.4645595" lon="126.935956"></trkpt>
      <trkpt lat="33.4645068" lon="126.9359643"></trkpt>
      <trkpt lat="33.4644667" lon="126.9360882"></trkpt>
      <trkpt lat="33.4644149" lon="126.9360687"></trkpt>
      <trkpt lat="33.4641222" lon="126.9360928"></trkpt>
      <trkpt lat="33.4640056" lon="126.9361964"></trkpt>
      <trkpt lat="33.4639076" lon="126.9362437"></trkpt>
      <trkpt lat="33.4638337" lon="126.936302"></trkpt>
      <trkpt lat="33.4637458" lon="126.9363403"></trkpt>
      <trkpt lat="33.4637028" lon="126.9362672"></trkpt>
      <trkpt lat="33.4636495" lon="126.9361114"></trkpt>
      <trkpt lat="33.4635792" lon="126.93606"></trkpt>
      <trkpt lat="33.4634921" lon="126.9360048"></trkpt>
      <trkpt lat="33.4634197" lon="126.9359963"></trkpt>
      <trkpt lat="33.4633538" lon="126.9359888"></trkpt>
      <trkpt lat="33.4632676" lon="126.93596"></trkpt>
      <trkpt lat="33.4632296" lon="126.935946"></trkpt>
      <trkpt lat="33.4631843" lon="126.935962"></trkpt>
      <trkpt lat="33.4631524" lon="126.9359822"></trkpt>
      <trkpt lat="33.463099" lon="126.9360738"></trkpt>
      <trkpt lat="33.4630795" lon="126.9361089"></trkpt>
      <trkpt lat="33.4629967" lon="126.9362532"></trkpt>
      <trkpt lat="33.4629116" lon="126.936408"></trkpt>
      <trkpt lat="33.462881" lon="126.9364576"></trkpt>
      <trkpt lat="33.4624788" lon="126.936315"></trkpt>
      <trkpt lat="33.4624938" lon="126.9362301"></trkpt>
      <trkpt lat="33.4625127" lon="126.9361022"></trkpt>
      <trkpt lat="33.4624675" lon="126.9360898"></trkpt>
      <trkpt lat="33.462208" lon="126.9359994"></trkpt>
      <trkpt lat="33.4622517" lon="126.9358114"></trkpt>
      <trkpt lat="33.4621207" lon="126.935775"></trkpt>
      <trkpt lat="33.4621885" lon="126.9355598"></trkpt>
      <trkpt lat="33.4616373" lon="126.9353635"></trkpt>
      <trkpt lat="33.4615801" lon="126.9353376"></trkpt>
      <trkpt lat="33.4614332" lon="126.9352956"></trkpt>
      <trkpt lat="33.4614904" lon="126.9351004"></trkpt>
      <trkpt lat="33.4615334" lon="126.9349391"></trkpt>
      <trkpt lat="33.4615822" lon="126.9347781"></trkpt>
      <trkpt lat="33.4618157" lon="126.9340832"></trkpt>
      <trkpt lat="33.4616111" lon="126.9340056"></trkpt>
      <trkpt lat="33.4615101" lon="126.933968"></trkpt>
      <trkpt lat="33.4613482" lon="126.9339072"></trkpt>
      <trkpt lat="33.4608765" lon="126.9339944"></trkpt>
      <trkpt lat="33.4608405" lon="126.9338179"></trkpt>
      <trkpt lat="33.4608006" lon="126.9335469"></trkpt>
      <trkpt lat="33.4607476" lon="126.933329"></trkpt>
      <trkpt lat="33.4604403" lon="126.9323331"></trkpt>
      <trkpt lat="33.4602705" lon="126.9318231"></trkpt>
      <trkpt lat="33.4601597" lon="126.9316029"></trkpt>
      <trkpt lat="33.4600877" lon="126.9315266"></trkpt>
      <trkpt lat="33.4595261" lon="126.9306011"></trkpt>
      <trkpt lat="33.4594189" lon="126.9303716"></trkpt>
      <trkpt lat="33.4592616" lon="126.9302268"></trkpt>
      <trkpt lat="33.4590751" lon="126.9300489"></trkpt>
      <trkpt lat="33.4589982" lon="126.9299874"></trkpt>
      <trkpt lat="33.4587045" lon="126.9297012"></trkpt>
      <trkpt lat="33.4581255" lon="126.9292347"></trkpt>
      <trkpt lat="33.4581626" lon="126.9291419"></trkpt>
      <trkpt lat="33.4580163" lon="126.9289957"></trkpt>
      <trkpt lat="33.4578752" lon="126.9288965"></trkpt>
      <trkpt lat="33.4577338" lon="126.9287425"></trkpt>
      <trkpt lat="33.4577547" lon="126.9286859"></trkpt>
      <trkpt lat="33.4573058" lon="126.9282755"></trkpt>
      <trkpt lat="33.4569221" lon="126.9279014"></trkpt>
      <trkpt lat="33.4566927" lon="126.9276653"></trkpt>
      <trkpt lat="33.4565808" lon="126.9278558"></trkpt>
      <trkpt lat="33.4565356" lon="126.9279066"></trkpt>
      <trkpt lat="33.4564298" lon="126.9279523"></trkpt>
      <trkpt lat="33.4563033" lon="126.9278651"></trkpt>
      <trkpt lat="33.4561735" lon="126.9277391"></trkpt>
      <trkpt lat="33.4558816" lon="126.9274216"></trkpt>
      <trkpt lat="33.4555514" lon="126.9270471"></trkpt>
      <trkpt lat="33.4553843" lon="126.9269223"></trkpt>
      <trkpt lat="33.4552617" lon="126.9268633"></trkpt>
      <trkpt lat="33.4549696" lon="126.9266179"></trkpt>
      <trkpt lat="33.4547669" lon="126.9264758"></trkpt>
      <trkpt lat="33.4545008" lon="126.9261324"></trkpt>
      <trkpt lat="33.4543397" lon="126.9258884"></trkpt>
      <trkpt lat="33.4538174" lon="126.9253498"></trkpt>
      <trkpt lat="33.4535095" lon="126.9251266"></trkpt>
      <trkpt lat="33.4531794" lon="126.9248702"></trkpt>
      <trkpt lat="33.452941" lon="126.9247001"></trkpt>
      <trkpt lat="33.4526869" lon="126.9245632"></trkpt>
      <trkpt lat="33.4521564" lon="126.9243729"></trkpt>
      <trkpt lat="33.4520352" lon="126.9243277"></trkpt>
      <trkpt lat="33.4520061" lon="126.9242014"></trkpt>
    </trkseg>
  </trk>
</gpx>
