<?xml version="1.0" encoding="UTF-8"?>
<gpx version="1.1" creator="overpass-osm-import">
  <trk>
    <name>올레길 19코스</name>
    <trkseg>
      <trkpt lat="33.5396831" lon="126.64191"></trkpt>
      <trkpt lat="33.5397141" lon="126.6418863"></trkpt>
      <trkpt lat="33.5397677" lon="126.6418392"></trkpt>
      <trkpt lat="33.5405058" lon="126.6411916"></trkpt>
      <trkpt lat="33.5408632" lon="126.6417661"></trkpt>
      <trkpt lat="33.5414637" lon="126.6427451"></trkpt>
      <trkpt lat="33.5414326" lon="126.6427814"></trkpt>
      <trkpt lat="33.5414084" lon="126.6428246"></trkpt>
      <trkpt lat="33.5413923" lon="126.6428729"></trkpt>
      <trkpt lat="33.5413849" lon="126.6429242"></trkpt>
      <trkpt lat="33.5413865" lon="126.6429762"></trkpt>
      <trkpt lat="33.5413972" lon="126.6430267"></trkpt>
      <trkpt lat="33.5414163" lon="126.6430734"></trkpt>
      <trkpt lat="33.5414431" lon="126.6431143"></trkpt>
      <trkpt lat="33.5414595" lon="126.6431307"></trkpt>
      <trkpt lat="33.5414765" lon="126.6431477"></trkpt>
      <trkpt lat="33.5415148" lon="126.643172"></trkpt>
      <trkpt lat="33.5415566" lon="126.6431861"></trkpt>
      <trkpt lat="33.5415999" lon="126.6431896"></trkpt>
      <trkpt lat="33.5416428" lon="126.6431822"></trkpt>
      <trkpt lat="33.541688" lon="126.6431776"></trkpt>
      <trkpt lat="33.5417415" lon="126.6431526"></trkpt>
      <trkpt lat="33.5419498" lon="126.6429523"></trkpt>
      <trkpt lat="33.5419927" lon="126.6429162"></trkpt>
      <trkpt lat="33.5420743" lon="126.6430431"></trkpt>
      <trkpt lat="33.5422718" lon="126.6433283"></trkpt>
      <trkpt lat="33.5423414" lon="126.6433968"></trkpt>
      <trkpt lat="33.5424403" lon="126.643478"></trkpt>
      <trkpt lat="33.5428311" lon="126.6436407"></trkpt>
      <trkpt lat="33.5429372" lon="126.643669"></trkpt>
      <trkpt lat="33.5430758" lon="126.6436797"></trkpt>
      <trkpt lat="33.5431574" lon="126.6436905"></trkpt>
      <trkpt lat="33.5432468" lon="126.643728"></trkpt>
      <trkpt lat="33.5433709" lon="126.6437803"></trkpt>
      <trkpt lat="33.5434782" lon="126.643834"></trkpt>
      <trkpt lat="33.543685" lon="126.6438849"></trkpt>
      <trkpt lat="33.5437722" lon="126.6439171"></trkpt>
      <trkpt lat="33.543875" lon="126.6439989"></trkpt>
      <trkpt lat="33.5439533" lon="126.6440807"></trkpt>
      <trkpt lat="33.5440416" lon="126.6441987"></trkpt>
      <trkpt lat="33.5440729" lon="126.6442966"></trkpt>
      <trkpt lat="33.5440807" lon="126.6443744"></trkpt>
      <trkpt lat="33.5440807" lon="126.6444616"></trkpt>
      <trkpt lat="33.5440941" lon="126.6445488"></trkpt>
      <trkpt lat="33.5441287" lon="126.6446426"></trkpt>
      <trkpt lat="33.5441866" lon="126.6448135"></trkpt>
      <trkpt lat="33.5442182" lon="126.644884"></trkpt>
      <trkpt lat="33.5443255" lon="126.6450275"></trkpt>
      <trkpt lat="33.544444" lon="126.6452019"></trkpt>
      <trkpt lat="33.5445099" lon="126.6452783"></trkpt>
      <trkpt lat="33.5445703" lon="126.6453078"></trkpt>
      <trkpt lat="33.5446284" lon="126.6453145"></trkpt>
      <trkpt lat="33.5448095" lon="126.6453132"></trkpt>
      <trkpt lat="33.544881" lon="126.6453253"></trkpt>
      <trkpt lat="33.5449928" lon="126.6454218"></trkpt>
      <trkpt lat="33.5451068" lon="126.6455372"></trkpt>
      <trkpt lat="33.545251" lon="126.6456082"></trkpt>
      <trkpt lat="33.5453706" lon="126.6456525"></trkpt>
      <trkpt lat="33.5454879" lon="126.6456579"></trkpt>
      <trkpt lat="33.5455849" lon="126.6456652"></trkpt>
      <trkpt lat="33.5456712" lon="126.6456404"></trkpt>
      <trkpt lat="33.5457777" lon="126.6455897"></trkpt>
      <trkpt lat="33.5458355" lon="126.6455868"></trkpt>
      <trkpt lat="33.5459202" lon="126.6456472"></trkpt>
      <trkpt lat="33.5460286" lon="126.645764"></trkpt>
      <trkpt lat="33.5460792" lon="126.645859"></trkpt>
      <trkpt lat="33.5461575" lon="126.6460454"></trkpt>
      <trkpt lat="33.5462547" lon="126.6461715"></trkpt>
      <trkpt lat="33.5463176" lon="126.6461635"></trkpt>
      <trkpt lat="33.5463553" lon="126.6461407"></trkpt>
      <trkpt lat="33.5464011" lon="126.6461018"></trkpt>
      <trkpt lat="33.5464525" lon="126.646028"></trkpt>
      <trkpt lat="33.5465006" lon="126.6459382"></trkpt>
      <trkpt lat="33.5465654" lon="126.6458832"></trkpt>
      <trkpt lat="33.5466727" lon="126.6457705"></trkpt>
      <trkpt lat="33.5468136" lon="126.64556"></trkpt>
      <trkpt lat="33.5468639" lon="126.6454969"></trkpt>
      <trkpt lat="33.546922" lon="126.6454741"></trkpt>
      <trkpt lat="33.5470103" lon="126.6454527"></trkpt>
      <trkpt lat="33.5470751" lon="126.6454285"></trkpt>
      <trkpt lat="33.5471321" lon="126.6453762"></trkpt>
      <trkpt lat="33.5471735" lon="126.6453199"></trkpt>
      <trkpt lat="33.5471992" lon="126.645273"></trkpt>
      <trkpt lat="33.5472204" lon="126.6451965"></trkpt>
      <trkpt lat="33.547245" lon="126.6450919"></trkpt>
      <trkpt lat="33.5472886" lon="126.6450195"></trkpt>
      <trkpt lat="33.5473277" lon="126.6449618"></trkpt>
      <trkpt lat="33.5473981" lon="126.6448961"></trkpt>
      <trkpt lat="33.5474674" lon="126.644821"></trkpt>
      <trkpt lat="33.5475367" lon="126.6446856"></trkpt>
      <trkpt lat="33.5475792" lon="126.6445085"></trkpt>
      <trkpt lat="33.5476261" lon="126.6443905"></trkpt>
      <trkpt lat="33.5476764" lon="126.6443074"></trkpt>
      <trkpt lat="33.5477414" lon="126.6441843"></trkpt>
      <trkpt lat="33.547777" lon="126.6440995"></trkpt>
      <trkpt lat="33.5478083" lon="126.6439413"></trkpt>
      <trkpt lat="33.5478407" lon="126.6438675"></trkpt>
      <trkpt lat="33.5478719" lon="126.6438428"></trkpt>
      <trkpt lat="33.5479648" lon="126.6437951"></trkpt>
      <trkpt lat="33.5479952" lon="126.6437584"></trkpt>
      <trkpt lat="33.548005" lon="126.6437066"></trkpt>
      <trkpt lat="33.548014" lon="126.6435939"></trkpt>
      <trkpt lat="33.5480296" lon="126.6435631"></trkpt>
      <trkpt lat="33.5480755" lon="126.6435215"></trkpt>
      <trkpt lat="33.5481079" lon="126.6434544"></trkpt>
      <trkpt lat="33.5481369" lon="126.6433418"></trkpt>
      <trkpt lat="33.5481559" lon="126.6431902"></trkpt>
      <trkpt lat="33.5481749" lon="126.6431218"></trkpt>
      <trkpt lat="33.5482867" lon="126.6429609"></trkpt>
      <trkpt lat="33.5483448" lon="126.6428831"></trkpt>
      <trkpt lat="33.5483616" lon="126.6428496"></trkpt>
      <trkpt lat="33.5483649" lon="126.6426739"></trkpt>
      <trkpt lat="33.5483828" lon="126.6426444"></trkpt>
      <trkpt lat="33.548413" lon="126.6426229"></trkpt>
      <trkpt lat="33.5484477" lon="126.6426042"></trkpt>
      <trkpt lat="33.5485874" lon="126.6423976"></trkpt>
      <trkpt lat="33.5486354" lon="126.642281"></trkpt>
      <trkpt lat="33.5486321" lon="126.6421898"></trkpt>
      <trkpt lat="33.548622" lon="126.6421267"></trkpt>
      <trkpt lat="33.5486008" lon="126.6420637"></trkpt>
      <trkpt lat="33.5486053" lon="126.6420168"></trkpt>
      <trkpt lat="33.5486209" lon="126.6419973"></trkpt>
      <trkpt lat="33.5486466" lon="126.6419752"></trkpt>
      <trkpt lat="33.5487405" lon="126.6419403"></trkpt>
      <trkpt lat="33.5488355" lon="126.6418679"></trkpt>
      <trkpt lat="33.5489115" lon="126.641774"></trkpt>
      <trkpt lat="33.5489361" lon="126.6416828"></trkpt>
      <trkpt lat="33.5489652" lon="126.6415192"></trkpt>
      <trkpt lat="33.548973" lon="126.6414374"></trkpt>
      <trkpt lat="33.5489931" lon="126.641373"></trkpt>
      <trkpt lat="33.5490143" lon="126.641306"></trkpt>
      <trkpt lat="33.5490786" lon="126.6412507"></trkpt>
      <trkpt lat="33.5492066" lon="126.6412188"></trkpt>
      <trkpt lat="33.5493005" lon="126.6412027"></trkpt>
      <trkpt lat="33.5493571" lon="126.6411515"></trkpt>
      <trkpt lat="33.5493943" lon="126.6411237"></trkpt>
      <trkpt lat="33.5495621" lon="126.6412693"></trkpt>
      <trkpt lat="33.5496669" lon="126.6413318"></trkpt>
      <trkpt lat="33.5497214" lon="126.6413599"></trkpt>
      <trkpt lat="33.5498745" lon="126.6413713"></trkpt>
      <trkpt lat="33.5499603" lon="126.6413694"></trkpt>
      <trkpt lat="33.5500488" lon="126.641337"></trkpt>
      <trkpt lat="33.5503436" lon="126.6412569"></trkpt>
      <trkpt lat="33.5505713" lon="126.6412954"></trkpt>
      <trkpt lat="33.5507513" lon="126.6414577"></trkpt>
      <trkpt lat="33.5511372" lon="126.6418585"></trkpt>
      <trkpt lat="33.5514124" lon="126.6421715"></trkpt>
      <trkpt lat="33.551587" lon="126.6423502"></trkpt>
      <trkpt lat="33.5516563" lon="126.6425135"></trkpt>
      <trkpt lat="33.5516961" lon="126.64274"></trkpt>
      <trkpt lat="33.5516884" lon="126.6429818"></trkpt>
      <trkpt lat="33.5516358" lon="126.6434317"></trkpt>
      <trkpt lat="33.5516692" lon="126.6436181"></trkpt>
      <trkpt lat="33.5517552" lon="126.6437798"></trkpt>
      <trkpt lat="33.5518387" lon="126.6438754"></trkpt>
      <trkpt lat="33.5519516" lon="126.6439601"></trkpt>
      <trkpt lat="33.5520967" lon="126.6439678"></trkpt>
      <trkpt lat="33.5522662" lon="126.6439324"></trkpt>
      <trkpt lat="33.5526058" lon="126.6437446"></trkpt>
      <trkpt lat="33.5528685" lon="126.6436175"></trkpt>
      <trkpt lat="33.552893" lon="126.643611"></trkpt>
      <trkpt lat="33.5529532" lon="126.6436128"></trkpt>
      <trkpt lat="33.5529982" lon="126.6436241"></trkpt>
      <trkpt lat="33.5530522" lon="126.6436519"></trkpt>
      <trkpt lat="33.5530955" lon="126.6436985"></trkpt>
      <trkpt lat="33.5531187" lon="126.6437414"></trkpt>
      <trkpt lat="33.5531472" lon="126.6437978"></trkpt>
      <trkpt lat="33.5531592" lon="126.6438629"></trkpt>
      <trkpt lat="33.5531625" lon="126.6439315"></trkpt>
      <trkpt lat="33.5531437" lon="126.6440267"></trkpt>
      <trkpt lat="33.5531271" lon="126.6440684"></trkpt>
      <trkpt lat="33.5530995" lon="126.6441321"></trkpt>
      <trkpt lat="33.5531669" lon="126.6441356"></trkpt>
      <trkpt lat="33.5533874" lon="126.6441408"></trkpt>
      <trkpt lat="33.5536113" lon="126.644129"></trkpt>
      <trkpt lat="33.5537345" lon="126.6441057"></trkpt>
      <trkpt lat="33.5538036" lon="126.6441332"></trkpt>
      <trkpt lat="33.5543609" lon="126.6444461"></trkpt>
      <trkpt lat="33.5544272" lon="126.6444817"></trkpt>
      <trkpt lat="33.5544909" lon="126.6445059"></trkpt>
      <trkpt lat="33.5546987" lon="126.6445877"></trkpt>
      <trkpt lat="33.5547637" lon="126.6445993"></trkpt>
      <trkpt lat="33.5548587" lon="126.6446097"></trkpt>
      <trkpt lat="33.5549335" lon="126.6446119"></trkpt>
      <trkpt lat="33.5549658" lon="126.6447017"></trkpt>
      <trkpt lat="33.5549696" lon="126.644755"></trkpt>
      <trkpt lat="33.5549189" lon="126.644821"></trkpt>
      <trkpt lat="33.5548977" lon="126.6448505"></trkpt>
      <trkpt lat="33.5548787" lon="126.6449082"></trkpt>
      <trkpt lat="33.5548226" lon="126.6449575"></trkpt>
      <trkpt lat="33.5547926" lon="126.6450007"></trkpt>
      <trkpt lat="33.5547809" lon="126.6450309"></trkpt>
      <trkpt lat="33.5547647" lon="126.6450557"></trkpt>
      <trkpt lat="33.5547395" lon="126.6450812"></trkpt>
      <trkpt lat="33.5546976" lon="126.6451295"></trkpt>
      <trkpt lat="33.5546311" lon="126.6453851"></trkpt>
      <trkpt lat="33.5545952" lon="126.6454348"></trkpt>
      <trkpt lat="33.5545311" lon="126.6454956"></trkpt>
      <trkpt lat="33.554492" lon="126.6455432"></trkpt>
      <trkpt lat="33.5544886" lon="126.6455841"></trkpt>
      <trkpt lat="33.5544992" lon="126.6456196"></trkpt>
      <trkpt lat="33.554511" lon="126.6456491"></trkpt>
      <trkpt lat="33.5545659" lon="126.6457304"></trkpt>
      <trkpt lat="33.5546507" lon="126.645804"></trkpt>
      <trkpt lat="33.5547513" lon="126.6463016"></trkpt>
      <trkpt lat="33.5547557" lon="126.6464142"></trkpt>
      <trkpt lat="33.5545976" lon="126.6468443"></trkpt>
      <trkpt lat="33.5545651" lon="126.6469028"></trkpt>
      <trkpt lat="33.5544059" lon="126.6470365"></trkpt>
      <trkpt lat="33.5542769" lon="126.6471752"></trkpt>
      <trkpt lat="33.5542036" lon="126.6472203"></trkpt>
      <trkpt lat="33.5537731" lon="126.6474443"></trkpt>
      <trkpt lat="33.5536716" lon="126.6475233"></trkpt>
      <trkpt lat="33.553618" lon="126.6475891"></trkpt>
      <trkpt lat="33.553571" lon="126.6476883"></trkpt>
      <trkpt lat="33.5535498" lon="126.6477714"></trkpt>
      <trkpt lat="33.5534794" lon="126.6479773"></trkpt>
      <trkpt lat="33.5534358" lon="126.6480491"></trkpt>
      <trkpt lat="33.5533989" lon="126.6480839"></trkpt>
      <trkpt lat="33.5533632" lon="126.6481537"></trkpt>
      <trkpt lat="33.5532961" lon="126.6483079"></trkpt>
      <trkpt lat="33.5532156" lon="126.6484836"></trkpt>
      <trkpt lat="33.5531329" lon="126.6486861"></trkpt>
      <trkpt lat="33.5530737" lon="126.6488309"></trkpt>
      <trkpt lat="33.5529562" lon="126.6490638"></trkpt>
      <trkpt lat="33.5528494" lon="126.6493168"></trkpt>
      <trkpt lat="33.5526183" lon="126.6493412"></trkpt>
      <trkpt lat="33.5524948" lon="126.6493566"></trkpt>
      <trkpt lat="33.5523946" lon="126.6492908"></trkpt>
      <trkpt lat="33.5523405" lon="126.6492574"></trkpt>
      <trkpt lat="33.5522679" lon="126.6492359"></trkpt>
      <trkpt lat="33.5521595" lon="126.6491581"></trkpt>
      <trkpt lat="33.5520924" lon="126.6490777"></trkpt>
      <trkpt lat="33.5520566" lon="126.6490147"></trkpt>
      <trkpt lat="33.552022" lon="126.6489315"></trkpt>
      <trkpt lat="33.5518605" lon="126.6486871"></trkpt>
      <trkpt lat="33.5517881" lon="126.6485349"></trkpt>
      <trkpt lat="33.5517538" lon="126.6485198"></trkpt>
      <trkpt lat="33.5513324" lon="126.6486928"></trkpt>
      <trkpt lat="33.5510486" lon="126.6487604"></trkpt>
      <trkpt lat="33.5510139" lon="126.6487625"></trkpt>
      <trkpt lat="33.5509613" lon="126.648678"></trkpt>
      <trkpt lat="33.5508123" lon="126.6484566"></trkpt>
      <trkpt lat="33.5507702" lon="126.6484179"></trkpt>
      <trkpt lat="33.5507132" lon="126.648383"></trkpt>
      <trkpt lat="33.5500646" lon="126.6482324"></trkpt>
      <trkpt lat="33.5499744" lon="126.6481698"></trkpt>
      <trkpt lat="33.5498901" lon="126.648071"></trkpt>
      <trkpt lat="33.5497153" lon="126.6478359"></trkpt>
      <trkpt lat="33.5495652" lon="126.6476344"></trkpt>
      <trkpt lat="33.5495285" lon="126.6476132"></trkpt>
      <trkpt lat="33.5494742" lon="126.6476028"></trkpt>
      <trkpt lat="33.5494011" lon="126.6476132"></trkpt>
      <trkpt lat="33.5493217" lon="126.6476427"></trkpt>
      <trkpt lat="33.5492969" lon="126.647645"></trkpt>
      <trkpt lat="33.5492241" lon="126.6476103"></trkpt>
      <trkpt lat="33.5491623" lon="126.6475808"></trkpt>
      <trkpt lat="33.5490596" lon="126.6477783"></trkpt>
      <trkpt lat="33.5490472" lon="126.6478067"></trkpt>
      <trkpt lat="33.5489377" lon="126.6481741"></trkpt>
      <trkpt lat="33.5488505" lon="126.6485577"></trkpt>
      <trkpt lat="33.5487876" lon="126.6489673"></trkpt>
      <trkpt lat="33.5487834" lon="126.6489949"></trkpt>
      <trkpt lat="33.5487141" lon="126.6494187"></trkpt>
      <trkpt lat="33.5486993" lon="126.6494836"></trkpt>
      <trkpt lat="33.5486772" lon="126.6497593"></trkpt>
      <trkpt lat="33.5486779" lon="126.6499253"></trkpt>
      <trkpt lat="33.548694" lon="126.6500745"></trkpt>
      <trkpt lat="33.548722" lon="126.6504098"></trkpt>
      <trkpt lat="33.5487477" lon="126.6507356"></trkpt>
      <trkpt lat="33.5487757" lon="126.6508764"></trkpt>
      <trkpt lat="33.5487968" lon="126.6509824"></trkpt>
      <trkpt lat="33.5488349" lon="126.6510692"></trkpt>
      <trkpt lat="33.5488031" lon="126.6511242"></trkpt>
      <trkpt lat="33.5487546" lon="126.6511869"></trkpt>
      <trkpt lat="33.5486858" lon="126.651252"></trkpt>
      <trkpt lat="33.5484835" lon="126.651344"></trkpt>
      <trkpt lat="33.5482745" lon="126.6514326"></trkpt>
      <trkpt lat="33.547862" lon="126.6516124"></trkpt>
      <trkpt lat="33.5474524" lon="126.6517819"></trkpt>
      <trkpt lat="33.5472999" lon="126.6518321"></trkpt>
      <trkpt lat="33.5473147" lon="126.6518873"></trkpt>
      <trkpt lat="33.5473383" lon="126.651932"></trkpt>
      <trkpt lat="33.5473589" lon="126.6519711"></trkpt>
      <trkpt lat="33.5473933" lon="126.6520036"></trkpt>
      <trkpt lat="33.5474975" lon="126.652102"></trkpt>
      <trkpt lat="33.5475978" lon="126.6522825"></trkpt>
      <trkpt lat="33.5476509" lon="126.6524949"></trkpt>
      <trkpt lat="33.5476509" lon="126.6526718"></trkpt>
      <trkpt lat="33.5476501" lon="126.6527188"></trkpt>
      <trkpt lat="33.547645" lon="126.6530257"></trkpt>
      <trkpt lat="33.5476442" lon="126.6530509"></trkpt>
      <trkpt lat="33.5476417" lon="126.6531291"></trkpt>
      <trkpt lat="33.5476317" lon="126.6532177"></trkpt>
      <trkpt lat="33.5476346" lon="126.6533856"></trkpt>
      <trkpt lat="33.5476421" lon="126.6537831"></trkpt>
      <trkpt lat="33.5476407" lon="126.6537896"></trkpt>
      <trkpt lat="33.5476214" lon="126.6538822"></trkpt>
      <trkpt lat="33.5475095" lon="126.6540529"></trkpt>
      <trkpt lat="33.5473534" lon="126.6542503"></trkpt>
      <trkpt lat="33.5473255" lon="126.6543227"></trkpt>
      <trkpt lat="33.5472964" lon="126.65443"></trkpt>
      <trkpt lat="33.5472394" lon="126.6545722"></trkpt>
      <trkpt lat="33.5471914" lon="126.6546634"></trkpt>
      <trkpt lat="33.5471221" lon="126.6547787"></trkpt>
      <trkpt lat="33.5470909" lon="126.6548279"></trkpt>
      <trkpt lat="33.5470483" lon="126.6548431"></trkpt>
      <trkpt lat="33.5469276" lon="126.6548578"></trkpt>
      <trkpt lat="33.5469052" lon="126.6548766"></trkpt>
      <trkpt lat="33.5468844" lon="126.6549205"></trkpt>
      <trkpt lat="33.5468606" lon="126.6550536"></trkpt>
      <trkpt lat="33.5468348" lon="126.6551234"></trkpt>
      <trkpt lat="33.5468152" lon="126.655167"></trkpt>
      <trkpt lat="33.5467877" lon="126.6552003"></trkpt>
      <trkpt lat="33.5466681" lon="126.655301"></trkpt>
      <trkpt lat="33.5465027" lon="126.6554471"></trkpt>
      <trkpt lat="33.546412" lon="126.6555173"></trkpt>
      <trkpt lat="33.546259" lon="126.6555102"></trkpt>
      <trkpt lat="33.5460787" lon="126.6555032"></trkpt>
      <trkpt lat="33.5459674" lon="126.6554886"></trkpt>
      <trkpt lat="33.5459272" lon="126.6554949"></trkpt>
      <trkpt lat="33.545884" lon="126.6555386"></trkpt>
      <trkpt lat="33.5458389" lon="126.6556142"></trkpt>
      <trkpt lat="33.5457535" lon="126.6558857"></trkpt>
      <trkpt lat="33.5456835" lon="126.6561862"></trkpt>
      <trkpt lat="33.5456422" lon="126.6563703"></trkpt>
      <trkpt lat="33.5456215" lon="126.6565189"></trkpt>
      <trkpt lat="33.5456465" lon="126.6565961"></trkpt>
      <trkpt lat="33.5457315" lon="126.656741"></trkpt>
      <trkpt lat="33.5456957" lon="126.6571996"></trkpt>
      <trkpt lat="33.5456935" lon="126.6572586"></trkpt>
      <trkpt lat="33.5457305" lon="126.6573496"></trkpt>
      <trkpt lat="33.5457864" lon="126.6574126"></trkpt>
      <trkpt lat="33.5458224" lon="126.6574519"></trkpt>
      <trkpt lat="33.545847" lon="126.6574847"></trkpt>
      <trkpt lat="33.5458445" lon="126.6575615"></trkpt>
      <trkpt lat="33.5458086" lon="126.6576985"></trkpt>
      <trkpt lat="33.5457774" lon="126.6577774"></trkpt>
      <trkpt lat="33.5457227" lon="126.6578445"></trkpt>
      <trkpt lat="33.5456801" lon="126.6579077"></trkpt>
      <trkpt lat="33.5456478" lon="126.6579947"></trkpt>
      <trkpt lat="33.5456276" lon="126.6580617"></trkpt>
      <trkpt lat="33.5455627" lon="126.6582014"></trkpt>
      <trkpt lat="33.5454969" lon="126.6583702"></trkpt>
      <trkpt lat="33.5454565" lon="126.6584831"></trkpt>
      <trkpt lat="33.5454622" lon="126.6585888"></trkpt>
      <trkpt lat="33.5454477" lon="126.6586719"></trkpt>
      <trkpt lat="33.5453907" lon="126.6588356"></trkpt>
      <trkpt lat="33.5453916" lon="126.658919"></trkpt>
      <trkpt lat="33.5453769" lon="126.6589758"></trkpt>
      <trkpt lat="33.5453685" lon="126.6590173"></trkpt>
      <trkpt lat="33.5455954" lon="126.6592405"></trkpt>
      <trkpt lat="33.545711" lon="126.659309"></trkpt>
      <trkpt lat="33.5457171" lon="126.6594258"></trkpt>
      <trkpt lat="33.5457133" lon="126.6595707"></trkpt>
      <trkpt lat="33.5457114" lon="126.6596946"></trkpt>
      <trkpt lat="33.5457784" lon="126.660039"></trkpt>
      <trkpt lat="33.5457431" lon="126.6601312"></trkpt>
      <trkpt lat="33.5457282" lon="126.6602609"></trkpt>
      <trkpt lat="33.5457412" lon="126.6603824"></trkpt>
      <trkpt lat="33.5457538" lon="126.6604278"></trkpt>
      <trkpt lat="33.5457635" lon="126.6604627"></trkpt>
      <trkpt lat="33.5457449" lon="126.6605474"></trkpt>
      <trkpt lat="33.5457063" lon="126.6606281"></trkpt>
      <trkpt lat="33.5456316" lon="126.6607147"></trkpt>
      <trkpt lat="33.5455628" lon="126.6607548"></trkpt>
      <trkpt lat="33.545416" lon="126.6608217"></trkpt>
      <trkpt lat="33.5454366" lon="126.6609454"></trkpt>
      <trkpt lat="33.5454371" lon="126.660974"></trkpt>
      <trkpt lat="33.5454339" lon="126.6610057"></trkpt>
      <trkpt lat="33.5454259" lon="126.6610035"></trkpt>
      <trkpt lat="33.5453873" lon="126.6610115"></trkpt>
      <trkpt lat="33.5453651" lon="126.6610272"></trkpt>
      <trkpt lat="33.5453165" lon="126.6610868"></trkpt>
      <trkpt lat="33.5452819" lon="126.6611481"></trkpt>
      <trkpt lat="33.5452867" lon="126.6611946"></trkpt>
      <trkpt lat="33.5453002" lon="126.6612387"></trkpt>
      <trkpt lat="33.5454953" lon="126.6614922"></trkpt>
      <trkpt lat="33.5456042" lon="126.6616037"></trkpt>
      <trkpt lat="33.5456629" lon="126.6616559"></trkpt>
      <trkpt lat="33.5457819" lon="126.6617297"></trkpt>
      <trkpt lat="33.5458478" lon="126.6617618"></trkpt>
      <trkpt lat="33.5458747" lon="126.6618048"></trkpt>
      <trkpt lat="33.5458786" lon="126.6618873"></trkpt>
      <trkpt lat="33.545842" lon="126.662065"></trkpt>
      <trkpt lat="33.5458377" lon="126.6620858"></trkpt>
      <trkpt lat="33.5456818" lon="126.6622225"></trkpt>
      <trkpt lat="33.5455287" lon="126.6623359"></trkpt>
      <trkpt lat="33.5453862" lon="126.662411"></trkpt>
      <trkpt lat="33.5453013" lon="126.6624418"></trkpt>
      <trkpt lat="33.5451637" lon="126.6624613"></trkpt>
      <trkpt lat="33.545019" lon="126.6625089"></trkpt>
      <trkpt lat="33.5448804" lon="126.6625913"></trkpt>
      <trkpt lat="33.5447513" lon="126.6627188"></trkpt>
      <trkpt lat="33.5447099" lon="126.6627798"></trkpt>
      <trkpt lat="33.5445064" lon="126.6631451"></trkpt>
      <trkpt lat="33.5444332" lon="126.6632549"></trkpt>
      <trkpt lat="33.5443523" lon="126.6633591"></trkpt>
      <trkpt lat="33.5442752" lon="126.6634154"></trkpt>
      <trkpt lat="33.5441606" lon="126.6634923"></trkpt>
      <trkpt lat="33.543922" lon="126.663579"></trkpt>
      <trkpt lat="33.5437045" lon="126.6636684"></trkpt>
      <trkpt lat="33.5436381" lon="126.6637091"></trkpt>
      <trkpt lat="33.5435665" lon="126.6637722"></trkpt>
      <trkpt lat="33.5434883" lon="126.6638634"></trkpt>
      <trkpt lat="33.5434223" lon="126.6639468"></trkpt>
      <trkpt lat="33.543182" lon="126.6644588"></trkpt>
      <trkpt lat="33.5429567" lon="126.6649404"></trkpt>
      <trkpt lat="33.5429458" lon="126.6649666"></trkpt>
      <trkpt lat="33.5429178" lon="126.6650316"></trkpt>
      <trkpt lat="33.542863" lon="126.665163"></trkpt>
      <trkpt lat="33.5427908" lon="126.6653936"></trkpt>
      <trkpt lat="33.5427554" lon="126.6655666"></trkpt>
      <trkpt lat="33.5427645" lon="126.6666111"></trkpt>
      <trkpt lat="33.5427642" lon="126.6666247"></trkpt>
      <trkpt lat="33.5427514" lon="126.6672143"></trkpt>
      <trkpt lat="33.5427158" lon="126.6678422"></trkpt>
      <trkpt lat="33.5426777" lon="126.6684274"></trkpt>
      <trkpt lat="33.5428172" lon="126.6684256"></trkpt>
      <trkpt lat="33.5428261" lon="126.6691525"></trkpt>
      <trkpt lat="33.54283" lon="126.6694167"></trkpt>
      <trkpt lat="33.542844" lon="126.6698766"></trkpt>
      <trkpt lat="33.5432103" lon="126.6698689"></trkpt>
      <trkpt lat="33.5432796" lon="126.6698958"></trkpt>
      <trkpt lat="33.5433084" lon="126.6699274"></trkpt>
      <trkpt lat="33.5433167" lon="126.6699554"></trkpt>
      <trkpt lat="33.5433656" lon="126.6701022"></trkpt>
      <trkpt lat="33.5435896" lon="126.6702779"></trkpt>
      <trkpt lat="33.54385" lon="126.6708587"></trkpt>
      <trkpt lat="33.5441977" lon="126.6710411"></trkpt>
      <trkpt lat="33.5443841" lon="126.6712941"></trkpt>
      <trkpt lat="33.5443987" lon="126.6714024"></trkpt>
      <trkpt lat="33.5443213" lon="126.6715142"></trkpt>
      <trkpt lat="33.5444659" lon="126.6716912"></trkpt>
      <trkpt lat="33.5446474" lon="126.6724436"></trkpt>
      <trkpt lat="33.5445603" lon="126.6728855"></trkpt>
      <trkpt lat="33.5443909" lon="126.673196"></trkpt>
      <trkpt lat="33.5444144" lon="126.673404"></trkpt>
      <trkpt lat="33.5444672" lon="126.6735023"></trkpt>
      <trkpt lat="33.5444233" lon="126.673658"></trkpt>
      <trkpt lat="33.5444473" lon="126.6738365"></trkpt>
      <trkpt lat="33.5444665" lon="126.6743068"></trkpt>
      <trkpt lat="33.5445289" lon="126.6743347"></trkpt>
      <trkpt lat="33.5445859" lon="126.6743796"></trkpt>
      <trkpt lat="33.5447336" lon="126.6745312"></trkpt>
      <trkpt lat="33.5448994" lon="126.6746257"></trkpt>
      <trkpt lat="33.5450129" lon="126.6746693"></trkpt>
      <trkpt lat="33.5451117" lon="126.6746877"></trkpt>
      <trkpt lat="33.5454214" lon="126.6747087"></trkpt>
      <trkpt lat="33.5458978" lon="126.6746408"></trkpt>
      <trkpt lat="33.5460087" lon="126.674674"></trkpt>
      <trkpt lat="33.5461848" lon="126.6746532"></trkpt>
      <trkpt lat="33.5462871" lon="126.6748135"></trkpt>
      <trkpt lat="33.5463948" lon="126.6750227"></trkpt>
      <trkpt lat="33.5464581" lon="126.6752399"></trkpt>
      <trkpt lat="33.546571" lon="126.6757281"></trkpt>
      <trkpt lat="33.5466146" lon="126.6760057"></trkpt>
      <trkpt lat="33.5466801" lon="126.6762367"></trkpt>
      <trkpt lat="33.5467744" lon="126.6763651"></trkpt>
      <trkpt lat="33.5469376" lon="126.6765462"></trkpt>
      <trkpt lat="33.5471617" lon="126.6767851"></trkpt>
      <trkpt lat="33.5472275" lon="126.6769117"></trkpt>
      <trkpt lat="33.5472674" lon="126.6771148"></trkpt>
      <trkpt lat="33.547311" lon="126.6773857"></trkpt>
      <trkpt lat="33.547397" lon="126.6775815"></trkpt>
      <trkpt lat="33.5474551" lon="126.6775947"></trkpt>
      <trkpt lat="33.5475968" lon="126.6774794"></trkpt>
      <trkpt lat="33.5480426" lon="126.6771976"></trkpt>
      <trkpt lat="33.5481746" lon="126.6774243"></trkpt>
      <trkpt lat="33.548391" lon="126.6775365"></trkpt>
      <trkpt lat="33.548528" lon="126.6775261"></trkpt>
      <trkpt lat="33.5486805" lon="126.6775959"></trkpt>
      <trkpt lat="33.5487178" lon="126.6775076"></trkpt>
      <trkpt lat="33.5489333" lon="126.6775217"></trkpt>
      <trkpt lat="33.5492367" lon="126.677346"></trkpt>
      <trkpt lat="33.5493918" lon="126.6773618"></trkpt>
      <trkpt lat="33.5494156" lon="126.6772664"></trkpt>
      <trkpt lat="33.5494377" lon="126.6772079"></trkpt>
      <trkpt lat="33.5495553" lon="126.6772315"></trkpt>
      <trkpt lat="33.5496458" lon="126.6772315"></trkpt>
      <trkpt lat="33.5497015" lon="126.6771984"></trkpt>
      <trkpt lat="33.5497846" lon="126.6771166"></trkpt>
      <trkpt lat="33.5498314" lon="126.6770732"></trkpt>
      <trkpt lat="33.5499301" lon="126.6770631"></trkpt>
      <trkpt lat="33.5499504" lon="126.6770841"></trkpt>
      <trkpt lat="33.5499632" lon="126.6771349"></trkpt>
      <trkpt lat="33.5499811" lon="126.6772411"></trkpt>
      <trkpt lat="33.5499813" lon="126.6773167"></trkpt>
      <trkpt lat="33.5500303" lon="126.6774219"></trkpt>
      <trkpt lat="33.5501542" lon="126.6775528"></trkpt>
      <trkpt lat="33.5502689" lon="126.6776928"></trkpt>
      <trkpt lat="33.5504095" lon="126.6778007"></trkpt>
      <trkpt lat="33.5505003" lon="126.6778404"></trkpt>
      <trkpt lat="33.5505671" lon="126.677871"></trkpt>
      <trkpt lat="33.5506489" lon="126.6779114"></trkpt>
      <trkpt lat="33.5506828" lon="126.6779442"></trkpt>
      <trkpt lat="33.5507205" lon="126.6780997"></trkpt>
      <trkpt lat="33.5507875" lon="126.6780234"></trkpt>
      <trkpt lat="33.550867" lon="126.6779773"></trkpt>
      <trkpt lat="33.5509442" lon="126.6779345"></trkpt>
      <trkpt lat="33.5510023" lon="126.679092"></trkpt>
      <trkpt lat="33.5509487" lon="126.6800791"></trkpt>
      <trkpt lat="33.5507609" lon="126.6802829"></trkpt>
      <trkpt lat="33.5507609" lon="126.6805189"></trkpt>
      <trkpt lat="33.5502513" lon="126.6810554"></trkpt>
      <trkpt lat="33.5500814" lon="126.6813343"></trkpt>
      <trkpt lat="33.5498489" lon="126.6815382"></trkpt>
      <trkpt lat="33.5496432" lon="126.6820317"></trkpt>
      <trkpt lat="33.5492498" lon="126.6824716"></trkpt>
      <trkpt lat="33.5491693" lon="126.6827827"></trkpt>
      <trkpt lat="33.5486865" lon="126.683287"></trkpt>
      <trkpt lat="33.5483557" lon="126.6834586"></trkpt>
      <trkpt lat="33.5480133" lon="126.6841352"></trkpt>
      <trkpt lat="33.5479667" lon="126.6842273"></trkpt>
      <trkpt lat="33.5478996" lon="126.6843599"></trkpt>
      <trkpt lat="33.5478694" lon="126.6846317"></trkpt>
      <trkpt lat="33.5478975" lon="126.684725"></trkpt>
      <trkpt lat="33.5479256" lon="126.6847626"></trkpt>
      <trkpt lat="33.548027" lon="126.6848982"></trkpt>
      <trkpt lat="33.5480628" lon="126.6849953"></trkpt>
      <trkpt lat="33.5480873" lon="126.6850861"></trkpt>
      <trkpt lat="33.5480783" lon="126.6852048"></trkpt>
      <trkpt lat="33.5480766" lon="126.6852171"></trkpt>
      <trkpt lat="33.5480604" lon="126.6853342"></trkpt>
      <trkpt lat="33.5480565" lon="126.6854821"></trkpt>
      <trkpt lat="33.5480706" lon="126.6855991"></trkpt>
      <trkpt lat="33.5480799" lon="126.6856252"></trkpt>
      <trkpt lat="33.547931" lon="126.6857361"></trkpt>
      <trkpt lat="33.5479076" lon="126.6858622"></trkpt>
      <trkpt lat="33.5477208" lon="126.6859323"></trkpt>
      <trkpt lat="33.5476838" lon="126.6859696"></trkpt>
      <trkpt lat="33.5476663" lon="126.6860304"></trkpt>
      <trkpt lat="33.5476741" lon="126.6861518"></trkpt>
      <trkpt lat="33.5476585" lon="126.6863059"></trkpt>
      <trkpt lat="33.5476539" lon="126.6863301"></trkpt>
      <trkpt lat="33.5476313" lon="126.6864507"></trkpt>
      <trkpt lat="33.5475593" lon="126.6866585"></trkpt>
      <trkpt lat="33.5474522" lon="126.6867869"></trkpt>
      <trkpt lat="33.5473277" lon="126.6869107"></trkpt>
      <trkpt lat="33.5471545" lon="126.6870741"></trkpt>
      <trkpt lat="33.5470766" lon="126.6871021"></trkpt>
      <trkpt lat="33.5469968" lon="126.6871208"></trkpt>
      <trkpt lat="33.5469458" lon="126.6871563"></trkpt>
      <trkpt lat="33.5468944" lon="126.6872139"></trkpt>
      <trkpt lat="33.5468117" lon="126.6873387"></trkpt>
      <trkpt lat="33.5467614" lon="126.6875103"></trkpt>
      <trkpt lat="33.5467077" lon="126.6875747"></trkpt>
      <trkpt lat="33.5465982" lon="126.6876699"></trkpt>
      <trkpt lat="33.5464953" lon="126.6878094"></trkpt>
      <trkpt lat="33.5464797" lon="126.6879368"></trkpt>
      <trkpt lat="33.5464797" lon="126.6880347"></trkpt>
      <trkpt lat="33.5464596" lon="126.6881836"></trkpt>
      <trkpt lat="33.546426" lon="126.6883029"></trkpt>
      <trkpt lat="33.5463556" lon="126.6885175"></trkpt>
      <trkpt lat="33.5462989" lon="126.6886633"></trkpt>
      <trkpt lat="33.5462094" lon="126.6888011"></trkpt>
      <trkpt lat="33.5461013" lon="126.6889035"></trkpt>
      <trkpt lat="33.5461385" lon="126.6889605"></trkpt>
      <trkpt lat="33.5462438" lon="126.6890145"></trkpt>
      <trkpt lat="33.5465296" lon="126.6889747"></trkpt>
      <trkpt lat="33.5466336" lon="126.6889454"></trkpt>
      <trkpt lat="33.5467106" lon="126.6889423"></trkpt>
      <trkpt lat="33.5468185" lon="126.6889608"></trkpt>
      <trkpt lat="33.5468518" lon="126.6889916"></trkpt>
      <trkpt lat="33.5469019" lon="126.6891226"></trkpt>
      <trkpt lat="33.546952" lon="126.6892704"></trkpt>
      <trkpt lat="33.5469879" lon="126.6893321"></trkpt>
      <trkpt lat="33.5471266" lon="126.6894183"></trkpt>
      <trkpt lat="33.5471954" lon="126.6894612"></trkpt>
      <trkpt lat="33.5472357" lon="126.6895293"></trkpt>
      <trkpt lat="33.547252" lon="126.6895701"></trkpt>
      <trkpt lat="33.5473128" lon="126.689708"></trkpt>
      <trkpt lat="33.5473654" lon="126.6897526"></trkpt>
      <trkpt lat="33.5475503" lon="126.6897388"></trkpt>
      <trkpt lat="33.5476264" lon="126.6897703"></trkpt>
      <trkpt lat="33.5477424" lon="126.6898151"></trkpt>
      <trkpt lat="33.547911" lon="126.689808"></trkpt>
      <trkpt lat="33.5479958" lon="126.6897788"></trkpt>
      <trkpt lat="33.5480818" lon="126.6897573"></trkpt>
      <trkpt lat="33.548127" lon="126.6897602"></trkpt>
      <trkpt lat="33.5481896" lon="126.6898595"></trkpt>
      <trkpt lat="33.5481896" lon="126.6899963"></trkpt>
      <trkpt lat="33.5482074" lon="126.6902806"></trkpt>
      <trkpt lat="33.5482387" lon="126.6903664"></trkpt>
      <trkpt lat="33.5483371" lon="126.690404"></trkpt>
      <trkpt lat="33.5486917" lon="126.6903711"></trkpt>
      <trkpt lat="33.5487887" lon="126.6903619"></trkpt>
      <trkpt lat="33.548854" lon="126.690284"></trkpt>
      <trkpt lat="33.5490091" lon="126.6900202"></trkpt>
      <trkpt lat="33.5491262" lon="126.689936"></trkpt>
      <trkpt lat="33.5496715" lon="126.6899412"></trkpt>
      <trkpt lat="33.5500974" lon="126.6903568"></trkpt>
      <trkpt lat="33.5502131" lon="126.690633"></trkpt>
      <trkpt lat="33.5501722" lon="126.6910803"></trkpt>
      <trkpt lat="33.5501661" lon="126.6912995"></trkpt>
      <trkpt lat="33.5502578" lon="126.6912951"></trkpt>
      <trkpt lat="33.5504602" lon="126.6912438"></trkpt>
      <trkpt lat="33.5505575" lon="126.6911527"></trkpt>
      <trkpt lat="33.5506265" lon="126.691255"></trkpt>
      <trkpt lat="33.5507439" lon="126.6914283"></trkpt>
      <trkpt lat="33.5508606" lon="126.6915964"></trkpt>
      <trkpt lat="33.5507799" lon="126.6918615"></trkpt>
      <trkpt lat="33.5507205" lon="126.6920167"></trkpt>
      <trkpt lat="33.5506631" lon="126.6922386"></trkpt>
      <trkpt lat="33.5505921" lon="126.692458"></trkpt>
      <trkpt lat="33.5505751" lon="126.6925307"></trkpt>
      <trkpt lat="33.5505547" lon="126.692566"></trkpt>
      <trkpt lat="33.5507129" lon="126.6926413"></trkpt>
      <trkpt lat="33.5507789" lon="126.6926352"></trkpt>
      <trkpt lat="33.5507942" lon="126.6926413"></trkpt>
      <trkpt lat="33.5508934" lon="126.6928395"></trkpt>
      <trkpt lat="33.5510179" lon="126.692913"></trkpt>
      <trkpt lat="33.5512743" lon="126.693435"></trkpt>
      <trkpt lat="33.5514068" lon="126.6935553"></trkpt>
      <trkpt lat="33.5514237" lon="126.6936757"></trkpt>
      <trkpt lat="33.5511159" lon="126.6938791"></trkpt>
      <trkpt lat="33.5508926" lon="126.6939424"></trkpt>
      <trkpt lat="33.5506781" lon="126.6939957"></trkpt>
      <trkpt lat="33.5505165" lon="126.6940556"></trkpt>
      <trkpt lat="33.5503337" lon="126.6941598"></trkpt>
      <trkpt lat="33.5502187" lon="126.6942791"></trkpt>
      <trkpt lat="33.5504697" lon="126.6945687"></trkpt>
      <trkpt lat="33.5504955" lon="126.6946197"></trkpt>
      <trkpt lat="33.5505019" lon="126.6946784"></trkpt>
      <trkpt lat="33.55048" lon="126.6947401"></trkpt>
      <trkpt lat="33.5504607" lon="126.6947911"></trkpt>
      <trkpt lat="33.550393" lon="126.6948797"></trkpt>
      <trkpt lat="33.5503773" lon="126.6948998"></trkpt>
      <trkpt lat="33.5501647" lon="126.6951355"></trkpt>
      <trkpt lat="33.5501145" lon="126.6952683"></trkpt>
      <trkpt lat="33.5503874" lon="126.6954984"></trkpt>
      <trkpt lat="33.5506014" lon="126.6956167"></trkpt>
      <trkpt lat="33.5507907" lon="126.6957658"></trkpt>
      <trkpt lat="33.5510479" lon="126.6958236"></trkpt>
      <trkpt lat="33.5512878" lon="126.6959539"></trkpt>
      <trkpt lat="33.5511838" lon="126.6961146"></trkpt>
      <trkpt lat="33.5510472" lon="126.6964624"></trkpt>
      <trkpt lat="33.5510249" lon="126.6965927"></trkpt>
      <trkpt lat="33.5508879" lon="126.6967561"></trkpt>
      <trkpt lat="33.5508097" lon="126.6968238"></trkpt>
      <trkpt lat="33.5507323" lon="126.696909"></trkpt>
      <trkpt lat="33.5506968" lon="126.6969669"></trkpt>
      <trkpt lat="33.5506677" lon="126.69704"></trkpt>
      <trkpt lat="33.5506613" lon="126.6971055"></trkpt>
      <trkpt lat="33.5506477" lon="126.6972082"></trkpt>
      <trkpt lat="33.5506349" lon="126.6973087"></trkpt>
      <trkpt lat="33.5506348" lon="126.6973886"></trkpt>
      <trkpt lat="33.5506176" lon="126.6974725"></trkpt>
      <trkpt lat="33.5505641" lon="126.6975415"></trkpt>
      <trkpt lat="33.5504238" lon="126.6976264"></trkpt>
      <trkpt lat="33.5501444" lon="126.6977703"></trkpt>
      <trkpt lat="33.5500178" lon="126.6978392"></trkpt>
      <trkpt lat="33.5498401" lon="126.697971"></trkpt>
      <trkpt lat="33.5499639" lon="126.6981676"></trkpt>
      <trkpt lat="33.5499104" lon="126.6982205"></trkpt>
      <trkpt lat="33.5498523" lon="126.6982692"></trkpt>
      <trkpt lat="33.5498214" lon="126.6982998"></trkpt>
      <trkpt lat="33.5500146" lon="126.6985581"></trkpt>
      <trkpt lat="33.5502594" lon="126.6989855"></trkpt>
      <trkpt lat="33.5504047" lon="126.69929"></trkpt>
      <trkpt lat="33.550503" lon="126.6994885"></trkpt>
      <trkpt lat="33.5504774" lon="126.6995046"></trkpt>
      <trkpt lat="33.5503128" lon="126.6996112"></trkpt>
      <trkpt lat="33.5502538" lon="126.6996494"></trkpt>
      <trkpt lat="33.5498861" lon="126.6998371"></trkpt>
      <trkpt lat="33.5496504" lon="126.6999974"></trkpt>
      <trkpt lat="33.5495183" lon="126.7001413"></trkpt>
      <trkpt lat="33.5494321" lon="126.7002435"></trkpt>
      <trkpt lat="33.549375" lon="126.7003166"></trkpt>
      <trkpt lat="33.5493235" lon="126.7003919"></trkpt>
      <trkpt lat="33.5492692" lon="126.7005211"></trkpt>
      <trkpt lat="33.5491924" lon="126.7006897"></trkpt>
      <trkpt lat="33.5491296" lon="126.7008099"></trkpt>
      <trkpt lat="33.54908" lon="126.7008998"></trkpt>
      <trkpt lat="33.5490322" lon="126.7009695"></trkpt>
      <trkpt lat="33.5489208" lon="126.701038"></trkpt>
      <trkpt lat="33.5488562" lon="126.701101"></trkpt>
      <trkpt lat="33.5488299" lon="126.7011852"></trkpt>
      <trkpt lat="33.5488084" lon="126.7013381"></trkpt>
      <trkpt lat="33.5487747" lon="126.7014628"></trkpt>
      <trkpt lat="33.5487213" lon="126.7016527"></trkpt>
      <trkpt lat="33.548622" lon="126.7019797"></trkpt>
      <trkpt lat="33.5485827" lon="126.7021146"></trkpt>
      <trkpt lat="33.5485583" lon="126.7022551"></trkpt>
      <trkpt lat="33.5485087" lon="126.702382"></trkpt>
      <trkpt lat="33.5484562" lon="126.7024899"></trkpt>
      <trkpt lat="33.548415" lon="126.7026304"></trkpt>
      <trkpt lat="33.5484047" lon="126.7027169"></trkpt>
      <trkpt lat="33.5483757" lon="126.7028889"></trkpt>
      <trkpt lat="33.5483158" lon="126.7030608"></trkpt>
      <trkpt lat="33.5482811" lon="126.7031956"></trkpt>
      <trkpt lat="33.5482493" lon="126.7033327"></trkpt>
      <trkpt lat="33.5482568" lon="126.7034058"></trkpt>
      <trkpt lat="33.5482998" lon="126.7034563"></trkpt>
      <trkpt lat="33.5483598" lon="126.703508"></trkpt>
      <trkpt lat="33.5484001" lon="126.7035496"></trkpt>
      <trkpt lat="33.5484366" lon="126.7036126"></trkpt>
      <trkpt lat="33.5484385" lon="126.7036867"></trkpt>
      <trkpt lat="33.5484328" lon="126.7037766"></trkpt>
      <trkpt lat="33.5483813" lon="126.7039384"></trkpt>
      <trkpt lat="33.5483289" lon="126.7041149"></trkpt>
      <trkpt lat="33.5482877" lon="126.7042598"></trkpt>
      <trkpt lat="33.5482792" lon="126.7043587"></trkpt>
      <trkpt lat="33.5482671" lon="126.704443"></trkpt>
      <trkpt lat="33.548239" lon="126.7045037"></trkpt>
      <trkpt lat="33.5482062" lon="126.7045329"></trkpt>
      <trkpt lat="33.5481481" lon="126.7045531"></trkpt>
      <trkpt lat="33.5480957" lon="126.70457"></trkpt>
      <trkpt lat="33.5480591" lon="126.704597"></trkpt>
      <trkpt lat="33.5480254" lon="126.7046498"></trkpt>
      <trkpt lat="33.5480011" lon="126.7047296"></trkpt>
      <trkpt lat="33.5479636" lon="126.7048397"></trkpt>
      <trkpt lat="33.5479046" lon="126.7049386"></trkpt>
      <trkpt lat="33.5478737" lon="126.7050083"></trkpt>
      <trkpt lat="33.5478484" lon="126.7051083"></trkpt>
      <trkpt lat="33.5478068" lon="126.7051931"></trkpt>
      <trkpt lat="33.5477822" lon="126.7052084"></trkpt>
      <trkpt lat="33.5477213" lon="126.7052465"></trkpt>
      <trkpt lat="33.5477055" lon="126.7052536"></trkpt>
      <trkpt lat="33.5474548" lon="126.705373"></trkpt>
      <trkpt lat="33.5473805" lon="126.7054152"></trkpt>
      <trkpt lat="33.5478819" lon="126.7059584"></trkpt>
      <trkpt lat="33.5476812" lon="126.7061494"></trkpt>
      <trkpt lat="33.5471665" lon="126.7065078"></trkpt>
      <trkpt lat="33.5466455" lon="126.7065433"></trkpt>
      <trkpt lat="33.5466731" lon="126.7068924"></trkpt>
      <trkpt lat="33.5468876" lon="126.7070441"></trkpt>
      <trkpt lat="33.5470321" lon="126.7073586"></trkpt>
      <trkpt lat="33.5470455" lon="126.7075821"></trkpt>
      <trkpt lat="33.5469596" lon="126.7078173"></trkpt>
      <trkpt lat="33.5472164" lon="126.7078739"></trkpt>
      <trkpt lat="33.5473757" lon="126.7079763"></trkpt>
      <trkpt lat="33.5474822" lon="126.7081887"></trkpt>
      <trkpt lat="33.547552" lon="126.7084898"></trkpt>
      <trkpt lat="33.5478441" lon="126.7087751"></trkpt>
      <trkpt lat="33.5479007" lon="126.7088864"></trkpt>
      <trkpt lat="33.5479421" lon="126.7091038"></trkpt>
      <trkpt lat="33.5480927" lon="126.7093859"></trkpt>
      <trkpt lat="33.5481346" lon="126.7095949"></trkpt>
      <trkpt lat="33.5480585" lon="126.7096151"></trkpt>
      <trkpt lat="33.5480058" lon="126.7096311"></trkpt>
      <trkpt lat="33.5478268" lon="126.7096591"></trkpt>
      <trkpt lat="33.5476321" lon="126.7096731"></trkpt>
      <trkpt lat="33.5474456" lon="126.7097154"></trkpt>
      <trkpt lat="33.547204" lon="126.7098039"></trkpt>
      <trkpt lat="33.5469744" lon="126.7099813"></trkpt>
      <trkpt lat="33.5467992" lon="126.7101728"></trkpt>
      <trkpt lat="33.5466202" lon="126.7104903"></trkpt>
      <trkpt lat="33.5465452" lon="126.7106746"></trkpt>
      <trkpt lat="33.5460909" lon="126.7106783"></trkpt>
      <trkpt lat="33.5456585" lon="126.7105532"></trkpt>
      <trkpt lat="33.5451468" lon="126.7106278"></trkpt>
      <trkpt lat="33.5447526" lon="126.7105735"></trkpt>
      <trkpt lat="33.5440526" lon="126.710608"></trkpt>
      <trkpt lat="33.5437862" lon="126.7105599"></trkpt>
      <trkpt lat="33.5437544" lon="126.7107283"></trkpt>
      <trkpt lat="33.5435635" lon="126.7109151"></trkpt>
      <trkpt lat="33.5433484" lon="126.710983"></trkpt>
      <trkpt lat="33.5430971" lon="126.7111713"></trkpt>
      <trkpt lat="33.5428263" lon="126.7110999"></trkpt>
      <trkpt lat="33.5424665" lon="126.7113857"></trkpt>
      <trkpt lat="33.5422583" lon="126.7114263"></trkpt>
      <trkpt lat="33.5420045" lon="126.7117971"></trkpt>
      <trkpt lat="33.5420085" lon="126.7122133"></trkpt>
      <trkpt lat="33.5418888" lon="126.7123983"></trkpt>
      <trkpt lat="33.5417328" lon="126.7123793"></trkpt>
      <trkpt lat="33.5417084" lon="126.7124434"></trkpt>
      <trkpt lat="33.5417424" lon="126.7127307"></trkpt>
      <trkpt lat="33.541681" lon="126.7135136"></trkpt>
      <trkpt lat="33.5417024" lon="126.7136453"></trkpt>
      <trkpt lat="33.5417359" lon="126.7139423"></trkpt>
      <trkpt lat="33.5417205" lon="126.7142121"></trkpt>
      <trkpt lat="33.5416439" lon="126.714258"></trkpt>
      <trkpt lat="33.5415447" lon="126.7142952"></trkpt>
      <trkpt lat="33.5414081" lon="126.714301"></trkpt>
      <trkpt lat="33.5412403" lon="126.7142839"></trkpt>
      <trkpt lat="33.5411949" lon="126.7144724"></trkpt>
      <trkpt lat="33.5408688" lon="126.7147257"></trkpt>
      <trkpt lat="33.5407077" lon="126.7149438"></trkpt>
      <trkpt lat="33.5409496" lon="126.7152181"></trkpt>
      <trkpt lat="33.5409718" lon="126.7153286"></trkpt>
      <trkpt lat="33.5409412" lon="126.7154617"></trkpt>
      <trkpt lat="33.5406175" lon="126.7158401"></trkpt>
      <trkpt lat="33.5407714" lon="126.7161023"></trkpt>
      <trkpt lat="33.5407181" lon="126.7163268"></trkpt>
      <trkpt lat="33.5406584" lon="126.7163941"></trkpt>
      <trkpt lat="33.5404635" lon="126.7163592"></trkpt>
      <trkpt lat="33.5403365" lon="126.7163935"></trkpt>
      <trkpt lat="33.5401828" lon="126.7166087"></trkpt>
      <trkpt lat="33.5400623" lon="126.7166923"></trkpt>
      <trkpt lat="33.539787" lon="126.7167565"></trkpt>
      <trkpt lat="33.5396408" lon="126.7168423"></trkpt>
      <trkpt lat="33.5393053" lon="126.7168728"></trkpt>
      <trkpt lat="33.5391095" lon="126.717028"></trkpt>
      <trkpt lat="33.5388051" lon="126.7170798"></trkpt>
      <trkpt lat="33.5382006" lon="126.7175049"></trkpt>
      <trkpt lat="33.5379861" lon="126.7175483"></trkpt>
      <trkpt lat="33.5375899" lon="126.7178623"></trkpt>
      <trkpt lat="33.5374095" lon="126.7181569"></trkpt>
      <trkpt lat="33.5372208" lon="126.7182373"></trkpt>
      <trkpt lat="33.5370672" lon="126.7185018"></trkpt>
      <trkpt lat="33.5368811" lon="126.7187124"></trkpt>
      <trkpt lat="33.5363378" lon="126.7191852"></trkpt>
      <trkpt lat="33.5359588" lon="126.719322"></trkpt>
      <trkpt lat="33.5352215" lon="126.719854"></trkpt>
      <trkpt lat="33.5345391" lon="126.7209693"></trkpt>
      <trkpt lat="33.5344361" lon="126.721052"></trkpt>
      <trkpt lat="33.5344034" lon="126.7212769"></trkpt>
      <trkpt lat="33.5344409" lon="126.7216855"></trkpt>
      <trkpt lat="33.5348422" lon="126.7218798"></trkpt>
      <trkpt lat="33.5349023" lon="126.722069"></trkpt>
      <trkpt lat="33.5348265" lon="126.7223088"></trkpt>
      <trkpt lat="33.5347174" lon="126.7226542"></trkpt>
      <trkpt lat="33.5347681" lon="126.7229121"></trkpt>
      <trkpt lat="33.5348539" lon="126.722985"></trkpt>
      <trkpt lat="33.534752" lon="126.7239651"></trkpt>
      <trkpt lat="33.5351671" lon="126.7243136"></trkpt>
      <trkpt lat="33.535223" lon="126.7246314"></trkpt>
      <trkpt lat="33.5354313" lon="126.7250821"></trkpt>
      <trkpt lat="33.5357413" lon="126.7255198"></trkpt>
      <trkpt lat="33.5357181" lon="126.7256292"></trkpt>
      <trkpt lat="33.5357375" lon="126.7256482"></trkpt>
      <trkpt lat="33.535823" lon="126.7257319"></trkpt>
      <trkpt lat="33.5360416" lon="126.7261408"></trkpt>
      <trkpt lat="33.5362172" lon="126.7261854"></trkpt>
      <trkpt lat="33.5363281" lon="126.7263897"></trkpt>
      <trkpt lat="33.5365571" lon="126.7266074"></trkpt>
      <trkpt lat="33.5367846" lon="126.7266772"></trkpt>
      <trkpt lat="33.5370858" lon="126.7264846"></trkpt>
      <trkpt lat="33.5371476" lon="126.7264993"></trkpt>
      <trkpt lat="33.5372752" lon="126.7268984"></trkpt>
      <trkpt lat="33.5372468" lon="126.7271003"></trkpt>
      <trkpt lat="33.5371495" lon="126.727302"></trkpt>
      <trkpt lat="33.5370477" lon="126.7275002"></trkpt>
      <trkpt lat="33.5368014" lon="126.7278435"></trkpt>
      <trkpt lat="33.5367483" lon="126.727932"></trkpt>
      <trkpt lat="33.5368014" lon="126.7280152"></trkpt>
      <trkpt lat="33.5368486" lon="126.7280983"></trkpt>
      <trkpt lat="33.5369105" lon="126.7281585"></trkpt>
      <trkpt lat="33.5369297" lon="126.7282576"></trkpt>
      <trkpt lat="33.5369105" lon="126.7283301"></trkpt>
      <trkpt lat="33.5369179" lon="126.7284115"></trkpt>
      <trkpt lat="33.5369577" lon="126.7285903"></trkpt>
      <trkpt lat="33.5370005" lon="126.7286841"></trkpt>
      <trkpt lat="33.5374135" lon="126.7287637"></trkpt>
      <trkpt lat="33.5375964" lon="126.7287955"></trkpt>
      <trkpt lat="33.53762" lon="126.7288115"></trkpt>
      <trkpt lat="33.5376687" lon="126.7288539"></trkpt>
      <trkpt lat="33.5377306" lon="126.72893"></trkpt>
      <trkpt lat="33.5377778" lon="126.7289637"></trkpt>
      <trkpt lat="33.5378457" lon="126.7289778"></trkpt>
      <trkpt lat="33.5384076" lon="126.7288557"></trkpt>
      <trkpt lat="33.5385065" lon="126.7288451"></trkpt>
      <trkpt lat="33.5385419" lon="126.7288911"></trkpt>
      <trkpt lat="33.5385935" lon="126.7289424"></trkpt>
      <trkpt lat="33.5386525" lon="126.7289849"></trkpt>
      <trkpt lat="33.5387395" lon="126.7290044"></trkpt>
      <trkpt lat="33.5388457" lon="126.728976"></trkpt>
      <trkpt lat="33.5389593" lon="126.7289955"></trkpt>
      <trkpt lat="33.5390316" lon="126.7290256"></trkpt>
      <trkpt lat="33.5394515" lon="126.7288648"></trkpt>
      <trkpt lat="33.5395316" lon="126.7288026"></trkpt>
      <trkpt lat="33.5396083" lon="126.7287425"></trkpt>
      <trkpt lat="33.5397115" lon="126.728746"></trkpt>
      <trkpt lat="33.5398114" lon="126.7289034"></trkpt>
      <trkpt lat="33.5398528" lon="126.7289902"></trkpt>
      <trkpt lat="33.5398856" lon="126.7290582"></trkpt>
      <trkpt lat="33.5399517" lon="126.7291434"></trkpt>
      <trkpt lat="33.5400692" lon="126.7292333"></trkpt>
      <trkpt lat="33.5401556" lon="126.7292613"></trkpt>
      <trkpt lat="33.5402055" lon="126.7292412"></trkpt>
      <trkpt lat="33.5402903" lon="126.7291997"></trkpt>
      <trkpt lat="33.5403971" lon="126.729181"></trkpt>
      <trkpt lat="33.5405178" lon="126.7291374"></trkpt>
      <trkpt lat="33.5406219" lon="126.7291668"></trkpt>
      <trkpt lat="33.5404059" lon="126.729788"></trkpt>
      <trkpt lat="33.5403712" lon="126.7301076"></trkpt>
      <trkpt lat="33.540279" lon="126.7302927"></trkpt>
      <trkpt lat="33.5403603" lon="126.730375"></trkpt>
      <trkpt lat="33.5401653" lon="126.7306236"></trkpt>
      <trkpt lat="33.5400595" lon="126.7308763"></trkpt>
      <trkpt lat="33.5400058" lon="126.7309736"></trkpt>
      <trkpt lat="33.5399542" lon="126.7310339"></trkpt>
      <trkpt lat="33.5400907" lon="126.7313403"></trkpt>
      <trkpt lat="33.5400801" lon="126.7313866"></trkpt>
      <trkpt lat="33.5400103" lon="126.7315127"></trkpt>
      <trkpt lat="33.539965" lon="126.7316629"></trkpt>
      <trkpt lat="33.5398927" lon="126.7319095"></trkpt>
      <trkpt lat="33.5398733" lon="126.7319821"></trkpt>
      <trkpt lat="33.539887" lon="126.7320306"></trkpt>
      <trkpt lat="33.5399341" lon="126.7320916"></trkpt>
      <trkpt lat="33.5400321" lon="126.7321363"></trkpt>
      <trkpt lat="33.5402006" lon="126.7321549"></trkpt>
      <trkpt lat="33.5402623" lon="126.73232"></trkpt>
      <trkpt lat="33.5403422" lon="126.7325453"></trkpt>
      <trkpt lat="33.5403352" lon="126.7326213"></trkpt>
      <trkpt lat="33.540354" lon="126.7327921"></trkpt>
      <trkpt lat="33.5403618" lon="126.7328806"></trkpt>
      <trkpt lat="33.5403736" lon="126.7329571"></trkpt>
      <trkpt lat="33.5404199" lon="126.7330704"></trkpt>
      <trkpt lat="33.5404473" lon="126.7331488"></trkpt>
      <trkpt lat="33.5404725" lon="126.7332615"></trkpt>
      <trkpt lat="33.5404432" lon="126.7333468"></trkpt>
      <trkpt lat="33.5403954" lon="126.7334372"></trkpt>
      <trkpt lat="33.5402521" lon="126.7335124"></trkpt>
      <trkpt lat="33.5403996" lon="126.7337109"></trkpt>
      <trkpt lat="33.5405315" lon="126.7338155"></trkpt>
      <trkpt lat="33.5406679" lon="126.7338115"></trkpt>
      <trkpt lat="33.5407831" lon="126.7338088"></trkpt>
      <trkpt lat="33.541003" lon="126.7338152"></trkpt>
      <trkpt lat="33.5410687" lon="126.7338232"></trkpt>
      <trkpt lat="33.5414738" lon="126.734014"></trkpt>
      <trkpt lat="33.5415836" lon="126.7340608"></trkpt>
      <trkpt lat="33.5416826" lon="126.7340806"></trkpt>
      <trkpt lat="33.5418156" lon="126.7341227"></trkpt>
      <trkpt lat="33.5419555" lon="126.734235"></trkpt>
      <trkpt lat="33.5419703" lon="126.7343491"></trkpt>
      <trkpt lat="33.5419622" lon="126.7345246"></trkpt>
      <trkpt lat="33.5420064" lon="126.7346598"></trkpt>
      <trkpt lat="33.5420829" lon="126.7347933"></trkpt>
      <trkpt lat="33.542231" lon="126.7349121"></trkpt>
      <trkpt lat="33.5423034" lon="126.7350559"></trkpt>
      <trkpt lat="33.5424216" lon="126.7352314"></trkpt>
      <trkpt lat="33.5424418" lon="126.7353881"></trkpt>
      <trkpt lat="33.5425028" lon="126.7355916"></trkpt>
      <trkpt lat="33.5424912" lon="126.7358083"></trkpt>
      <trkpt lat="33.5425063" lon="126.7361533"></trkpt>
      <trkpt lat="33.5425686" lon="126.7364437"></trkpt>
      <trkpt lat="33.5425987" lon="126.7365203"></trkpt>
      <trkpt lat="33.5426262" lon="126.73659"></trkpt>
      <trkpt lat="33.5427211" lon="126.7367242"></trkpt>
      <trkpt lat="33.5428075" lon="126.7367787"></trkpt>
      <trkpt lat="33.5431434" lon="126.7369764"></trkpt>
      <trkpt lat="33.5434428" lon="126.7371633"></trkpt>
      <trkpt lat="33.5436537" lon="126.7373023"></trkpt>
      <trkpt lat="33.543844" lon="126.7373429"></trkpt>
      <trkpt lat="33.5439116" lon="126.7373429"></trkpt>
      <trkpt lat="33.5439499" lon="126.7374223"></trkpt>
      <trkpt lat="33.5439846" lon="126.7374672"></trkpt>
      <trkpt lat="33.544055" lon="126.737543"></trkpt>
      <trkpt lat="33.5441394" lon="126.7376208"></trkpt>
      <trkpt lat="33.5442713" lon="126.7377408"></trkpt>
      <trkpt lat="33.5444384" lon="126.7378487"></trkpt>
      <trkpt lat="33.5447273" lon="126.7379815"></trkpt>
      <trkpt lat="33.5448083" lon="126.7380244"></trkpt>
      <trkpt lat="33.5448687" lon="126.7380814"></trkpt>
      <trkpt lat="33.5451213" lon="126.738302"></trkpt>
      <trkpt lat="33.545261" lon="126.7384455"></trkpt>
      <trkpt lat="33.5454874" lon="126.7386313"></trkpt>
      <trkpt lat="33.5455136" lon="126.7386655"></trkpt>
      <trkpt lat="33.5455444" lon="126.7387292"></trkpt>
      <trkpt lat="33.5455628" lon="126.7388016"></trkpt>
      <trkpt lat="33.5455645" lon="126.7389344"></trkpt>
      <trkpt lat="33.5455723" lon="126.7390953"></trkpt>
      <trkpt lat="33.5456064" lon="126.7392328"></trkpt>
      <trkpt lat="33.545636" lon="126.7393012"></trkpt>
      <trkpt lat="33.5457271" lon="126.7394212"></trkpt>
      <trkpt lat="33.5458981" lon="126.7396378"></trkpt>
      <trkpt lat="33.5459272" lon="126.7397135"></trkpt>
      <trkpt lat="33.5459143" lon="126.7397645"></trkpt>
      <trkpt lat="33.5459082" lon="126.7398262"></trkpt>
      <trkpt lat="33.5459015" lon="126.7398611"></trkpt>
      <trkpt lat="33.5459166" lon="126.7399053"></trkpt>
      <trkpt lat="33.5459579" lon="126.739971"></trkpt>
      <trkpt lat="33.5461586" lon="126.7401534"></trkpt>
      <trkpt lat="33.5463134" lon="126.7402782"></trkpt>
      <trkpt lat="33.5463531" lon="126.7403345"></trkpt>
      <trkpt lat="33.5463519" lon="126.7403774"></trkpt>
      <trkpt lat="33.5463396" lon="126.7404914"></trkpt>
      <trkpt lat="33.5463396" lon="126.7406852"></trkpt>
      <trkpt lat="33.5463637" lon="126.7408468"></trkpt>
      <trkpt lat="33.5463978" lon="126.7410151"></trkpt>
      <trkpt lat="33.5464414" lon="126.7410976"></trkpt>
      <trkpt lat="33.546576" lon="126.7411908"></trkpt>
      <trkpt lat="33.5466213" lon="126.7412632"></trkpt>
      <trkpt lat="33.5466744" lon="126.7414768"></trkpt>
      <trkpt lat="33.5469619" lon="126.7415385"></trkpt>
      <trkpt lat="33.5471209" lon="126.7416196"></trkpt>
      <trkpt lat="33.5474359" lon="126.7418538"></trkpt>
      <trkpt lat="33.5475545" lon="126.7419699"></trkpt>
      <trkpt lat="33.5477289" lon="126.7421078"></trkpt>
      <trkpt lat="33.547861" lon="126.7422216"></trkpt>
      <trkpt lat="33.548044" lon="126.742433"></trkpt>
      <trkpt lat="33.5484054" lon="126.7427778"></trkpt>
      <trkpt lat="33.5488334" lon="126.7431038"></trkpt>
      <trkpt lat="33.5491718" lon="126.743301"></trkpt>
      <trkpt lat="33.5493783" lon="126.7434169"></trkpt>
      <trkpt lat="33.5495599" lon="126.7435192"></trkpt>
      <trkpt lat="33.5497169" lon="126.7435757"></trkpt>
      <trkpt lat="33.5497987" lon="126.7436061"></trkpt>
      <trkpt lat="33.5499563" lon="126.7436154"></trkpt>
      <trkpt lat="33.5503513" lon="126.7435874"></trkpt>
      <trkpt lat="33.5507783" lon="126.7435208"></trkpt>
      <trkpt lat="33.5510482" lon="126.743538"></trkpt>
      <trkpt lat="33.5511483" lon="126.7435396"></trkpt>
      <trkpt lat="33.551233" lon="126.743532"></trkpt>
      <trkpt lat="33.5513717" lon="126.7435307"></trkpt>
      <trkpt lat="33.551473" lon="126.7435916"></trkpt>
      <trkpt lat="33.5515365" lon="126.7436221"></trkpt>
      <trkpt lat="33.5519515" lon="126.7438163"></trkpt>
      <trkpt lat="33.5520756" lon="126.743892"></trkpt>
      <trkpt lat="33.5521437" lon="126.7439408"></trkpt>
      <trkpt lat="33.5523476" lon="126.7440937"></trkpt>
      <trkpt lat="33.5524605" lon="126.7441782"></trkpt>
      <trkpt lat="33.5527326" lon="126.7443124"></trkpt>
      <trkpt lat="33.5527655" lon="126.7443285"></trkpt>
      <trkpt lat="33.5529392" lon="126.7440424"></trkpt>
      <trkpt lat="33.5530581" lon="126.7439588"></trkpt>
      <trkpt lat="33.5531646" lon="126.7438867"></trkpt>
      <trkpt lat="33.5532655" lon="126.7438306"></trkpt>
      <trkpt lat="33.5535239" lon="126.7436833"></trkpt>
      <trkpt lat="33.553712" lon="126.7435495"></trkpt>
      <trkpt lat="33.5537876" lon="126.7435287"></trkpt>
      <trkpt lat="33.5538674" lon="126.7434999"></trkpt>
      <trkpt lat="33.554062" lon="126.7433839"></trkpt>
      <trkpt lat="33.5543456" lon="126.7433318"></trkpt>
      <trkpt lat="33.5544417" lon="126.7433017"></trkpt>
      <trkpt lat="33.554499" lon="126.7432627"></trkpt>
      <trkpt lat="33.5545847" lon="126.7431588"></trkpt>
      <trkpt lat="33.5546672" lon="126.7430827"></trkpt>
      <trkpt lat="33.5547367" lon="126.7430381"></trkpt>
      <trkpt lat="33.5548055" lon="126.7430174"></trkpt>
      <trkpt lat="33.555038" lon="126.7429891"></trkpt>
      <trkpt lat="33.5552961" lon="126.7429356"></trkpt>
      <trkpt lat="33.5553529" lon="126.7429086"></trkpt>
      <trkpt lat="33.5553716" lon="126.743131"></trkpt>
      <trkpt lat="33.5554375" lon="126.7431283"></trkpt>
      <trkpt lat="33.5556145" lon="126.7431089"></trkpt>
      <trkpt lat="33.5556924" lon="126.7430479"></trkpt>
      <trkpt lat="33.5557974" lon="126.7429992"></trkpt>
      <trkpt lat="33.555983" lon="126.7429367"></trkpt>
      <trkpt lat="33.5560708" lon="126.7429057"></trkpt>
      <trkpt lat="33.5561273" lon="126.7428437"></trkpt>
      <trkpt lat="33.5562207" lon="126.7426477"></trkpt>
      <trkpt lat="33.556271" lon="126.7425737"></trkpt>
      <trkpt lat="33.5563517" lon="126.7425459"></trkpt>
      <trkpt lat="33.5564733" lon="126.7425654"></trkpt>
      <trkpt lat="33.5565438" lon="126.742576"></trkpt>
      <trkpt lat="33.5566039" lon="126.7428077"></trkpt>
      <trkpt lat="33.55671" lon="126.7429032"></trkpt>
      <trkpt lat="33.5567867" lon="126.7431333"></trkpt>
      <trkpt lat="33.5569371" lon="126.7432536"></trkpt>
      <trkpt lat="33.5569342" lon="126.7435544"></trkpt>
      <trkpt lat="33.5569932" lon="126.7438553"></trkpt>
      <trkpt lat="33.5572173" lon="126.7443614"></trkpt>
      <trkpt lat="33.5574061" lon="126.7448144"></trkpt>
      <trkpt lat="33.5574324" lon="126.7448668"></trkpt>
      <trkpt lat="33.5575046" lon="126.744999"></trkpt>
    </trkseg>
  </trk>
</gpx>
